{
"type": "FeatureCollection",
"crs": { "type": "name", "properties": { "name": "urn:ogc:def:crs:OGC:1.3:CRS84" } },
"features": [
{ "type": "Feature", "properties": { "name": "Africa" }, "geometry": { "type": "Point", "coordinates": [ 26.780252335519982, 1.217822265624996 ] } },
{ "type": "Feature", "properties": { "name": "Antarctica" }, "geometry": { "type": "Point", "coordinates": [ 66.355691750975737, -76.61899414062502 ] } },
{ "type": "Feature", "properties": { "name": "Asia" }, "geometry": { "type": "Point", "coordinates": [ 86.390914914024336, 28.360815429687495 ] } },
{ "type": "Feature", "properties": { "name": "Europe" }, "geometry": { "type": "Point", "coordinates": [ 79.860267774223004, 56.881323242187499 ] } },
{ "type": "Feature", "properties": { "name": "North America" }, "geometry": { "type": "Point", "coordinates": [ -99.683322699669773, 39.607861328124997 ] } },
{ "type": "Feature", "properties": { "name": "Oceania" }, "geometry": { "type": "Point", "coordinates": [ 133.076505740871568, -24.933984375 ] } },
{ "type": "Feature", "properties": { "name": "Seven seas (open ocean)" }, "geometry": { "type": "Point", "coordinates": [ -36.461005711609104, -54.431298828125009 ] } },
{ "type": "Feature", "properties": { "name": "South America" }, "geometry": { "type": "Point", "coordinates": [ -55.332300659219165, -20.647412109375004 ] } }
]
}
