{"type": "FeatureCollection", "features": [{"type": "Feature", "geometry": {"type": "Point", "coordinates": [29.925444, -18.91164]}, "properties": {"name": "Zimbabwe", "adm0_a3": "ZWE", "continent": "Africa", "labelrank": 3, "scalerank": 1, "min_zoom": 0.0, "min_label": 2.5, "max_label": 8.0, "pop_est": 14645468.0}}, {"type": "Feature", "geometry": {"type": "Point", "coordinates": [26.395298, -14.660804]}, "properties": {"name": "Zambia", "adm0_a3": "ZMB", "continent": "Africa", "labelrank": 3, "scalerank": 1, "min_zoom": 0.0, "min_label": 3.0, "max_label": 8.0, "pop_est": 17861030.0}}, {"type": "Feature", "geometry": {"type": "Point", "coordinates": [45.874383, 15.328226]}, "properties": {"name": "Yemen", "adm0_a3": "YEM", "continent": "Asia", "labelrank": 3, "scalerank": 1, "min_zoom": 0.0, "min_label": 3.0, "max_label": 8.0, "pop_est": 29161922.0}}, {"type": "Feature", "geometry": {"type": "Point", "coordinates": [105.387292, 21.715416]}, "properties": {"name": "Vietnam", "adm0_a3": "VNM", "continent": "Asia", "labelrank": 2, "scalerank": 3, "min_zoom": 0.0, "min_label": 2.0, "max_label": 7.0, "pop_est": 96462106.0}}, {"type": "Feature", "geometry": {"type": "Point", "coordinates": [-64.599381, 7.182476]}, "properties": {"name": "Venezuela", "adm0_a3": "VEN", "continent": "South America", "labelrank": 3, "scalerank": 5, "min_zoom": 0.0, "min_label": 2.5, "max_label": 7.5, "pop_est": 28515829.0}}, {"type": "Feature", "geometry": {"type": "Point", "coordinates": [12.453418, 41.903323]}, "properties": {"name": "Vatican", "adm0_a3": "VAT", "continent": "Europe", "labelrank": 6, "scalerank": 6, "min_zoom": 0.0, "min_label": 5.0, "max_label": 10.0, "pop_est": 825.0}}, {"type": "Feature", "geometry": {"type": "Point", "coordinates": [166.908762, -15.37153]}, "properties": {"name": "Vanuatu", "adm0_a3": "VUT", "continent": "Oceania", "labelrank": 4, "scalerank": 1, "min_zoom": 0.0, "min_label": 4.0, "max_label": 9.0, "pop_est": 299882.0}}, {"type": "Feature", "geometry": {"type": "Point", "coordinates": [64.005429, 41.693603]}, "properties": {"name": "Uzbekistan", "adm0_a3": "UZB", "continent": "Asia", "labelrank": 3, "scalerank": 1, "min_zoom": 0.0, "min_label": 3.0, "max_label": 8.0, "pop_est": 33580650.0}}, {"type": "Feature", "geometry": {"type": "Point", "coordinates": [-55.966942, -32.961127]}, "properties": {"name": "Uruguay", "adm0_a3": "URY", "continent": "South America", "labelrank": 4, "scalerank": 1, "min_zoom": 0.0, "min_label": 3.0, "max_label": 8.0, "pop_est": 3461734.0}}, {"type": "Feature", "geometry": {"type": "Point", "coordinates": [158.234019, 6.887553]}, "properties": {"name": "Micronesia", "adm0_a3": "FSM", "continent": "Oceania", "labelrank": 6, "scalerank": 3, "min_zoom": 0.0, "min_label": 5.0, "max_label": 10.0, "pop_est": 113815.0}}, {"type": "Feature", "geometry": {"type": "Point", "coordinates": [171.193609, 7.082568]}, "properties": {"name": "Marshall Is.", "adm0_a3": "MHL", "continent": "Oceania", "labelrank": 6, "scalerank": 5, "min_zoom": 0.0, "min_label": 5.0, "max_label": 10.0, "pop_est": 58791.0}}, {"type": "Feature", "geometry": {"type": "Point", "coordinates": [145.734397, 15.188188]}, "properties": {"name": "N. Mariana Is.", "adm0_a3": "MNP", "continent": "Oceania", "labelrank": 6, "scalerank": 3, "min_zoom": 0.0, "min_label": 5.0, "max_label": 10.0, "pop_est": 57216.0}}, {"type": "Feature", "geometry": {"type": "Point", "coordinates": [-64.779172, 17.746706]}, "properties": {"name": "U.S. Virgin Is.", "adm0_a3": "VIR", "continent": "North America", "labelrank": 6, "scalerank": 3, "min_zoom": 0.0, "min_label": 5.0, "max_label": 10.0, "pop_est": 106631.0}}, {"type": "Feature", "geometry": {"type": "Point", "coordinates": [144.703614, 13.354173]}, "properties": {"name": "Guam", "adm0_a3": "GUM", "continent": "Oceania", "labelrank": 6, "scalerank": 3, "min_zoom": 0.0, "min_label": 3.0, "max_label": 10.0, "pop_est": 167294.0}}, {"type": "Feature", "geometry": {"type": "Point", "coordinates": [-170.747153, -14.32671]}, "properties": {"name": "American Samoa", "adm0_a3": "ASM", "continent": "Oceania", "labelrank": 4, "scalerank": 3, "min_zoom": 0.0, "min_label": 4.0, "max_label": 9.0, "pop_est": 55312.0}}, {"type": "Feature", "geometry": {"type": "Point", "coordinates": [-66.481065, 18.234668]}, "properties": {"name": "Puerto Rico", "adm0_a3": "PRI", "continent": "North America", "labelrank": 5, "scalerank": 1, "min_zoom": 0.0, "min_label": 3.0, "max_label": 8.0, "pop_est": 3193694.0}}, {"type": "Feature", "geometry": {"type": "Point", "coordinates": [-97.482602, 39.538479]}, "properties": {"name": "United States of America", "adm0_a3": "USA", "continent": "North America", "labelrank": 2, "scalerank": 5, "min_zoom": 0.0, "min_label": 1.7, "max_label": 5.7, "pop_est": 328239523.0}}, {"type": "Feature", "geometry": {"type": "Point", "coordinates": [-31.063179, -55.683402]}, "properties": {"name": "S. Geo. and the Is.", "adm0_a3": "SGS", "continent": "Seven seas (open ocean)", "labelrank": 4, "scalerank": 3, "min_zoom": 0.0, "min_label": 5.0, "max_label": 9.0, "pop_est": 30.0}}, {"type": "Feature", "geometry": {"type": "Point", "coordinates": [71.348349, -6.190826]}, "properties": {"name": "Br. Indian Ocean Ter.", "adm0_a3": "IOT", "continent": "Seven seas (open ocean)", "labelrank": 5, "scalerank": 3, "min_zoom": 0.0, "min_label": 5.0, "max_label": 9.5, "pop_est": 3000.0}}, {"type": "Feature", "geometry": {"type": "Point", "coordinates": [-5.71262, -15.950487]}, "properties": {"name": "Saint Helena", "adm0_a3": "SHN", "continent": "Seven seas (open ocean)", "labelrank": 6, "scalerank": 3, "min_zoom": 0.0, "min_label": 5.0, "max_label": 10.0, "pop_est": 4534.0}}, {"type": "Feature", "geometry": {"type": "Point", "coordinates": [-128.317536, -24.364576]}, "properties": {"name": "Pitcairn Is.", "adm0_a3": "PCN", "continent": "Oceania", "labelrank": 4, "scalerank": 3, "min_zoom": 0.0, "min_label": 5.0, "max_label": 9.0, "pop_est": 54.0}}, {"type": "Feature", "geometry": {"type": "Point", "coordinates": [-63.026361, 18.242979]}, "properties": {"name": "Anguilla", "adm0_a3": "AIA", "continent": "North America", "labelrank": 6, "scalerank": 1, "min_zoom": 0.0, "min_label": 5.0, "max_label": 10.0, "pop_est": 14731.0}}, {"type": "Feature", "geometry": {"type": "Point", "coordinates": [-58.738602, -51.608913]}, "properties": {"name": "Falkland Is.", "adm0_a3": "FLK", "continent": "South America", "labelrank": 5, "scalerank": 1, "min_zoom": 0.0, "min_label": 4.5, "max_label": 9.0, "pop_est": 3398.0}}, {"type": "Feature", "geometry": {"type": "Point", "coordinates": [-81.24055, 19.319862]}, "properties": {"name": "Cayman Is.", "adm0_a3": "CYM", "continent": "North America", "labelrank": 5, "scalerank": 1, "min_zoom": 0.0, "min_label": 5.0, "max_label": 9.5, "pop_est": 64948.0}}, {"type": "Feature", "geometry": {"type": "Point", "coordinates": [-64.763573, 32.296592]}, "properties": {"name": "Bermuda", "adm0_a3": "BMU", "continent": "North America", "labelrank": 6, "scalerank": 3, "min_zoom": 0.0, "min_label": 4.0, "max_label": 9.0, "pop_est": 63918.0}}, {"type": "Feature", "geometry": {"type": "Point", "coordinates": [-64.63661, 18.426606]}, "properties": {"name": "British Virgin Is.", "adm0_a3": "VGB", "continent": "North America", "labelrank": 6, "scalerank": 3, "min_zoom": 0.0, "min_label": 5.0, "max_label": 9.5, "pop_est": 30030.0}}, {"type": "Feature", "geometry": {"type": "Point", "coordinates": [-71.752704, 21.81663]}, "properties": {"name": "Turks and Caicos Is.", "adm0_a3": "TCA", "continent": "North America", "labelrank": 6, "scalerank": 3, "min_zoom": 0.0, "min_label": 5.0, "max_label": 10.0, "pop_est": 38191.0}}, {"type": "Feature", "geometry": {"type": "Point", "coordinates": [-62.188252, 16.73717]}, "properties": {"name": "Montserrat", "adm0_a3": "MSR", "continent": "North America", "labelrank": 6, "scalerank": 3, "min_zoom": 0.0, "min_label": 5.0, "max_label": 10.0, "pop_est": 4649.0}}, {"type": "Feature", "geometry": {"type": "Point", "coordinates": [-2.090146, 49.220808]}, "properties": {"name": "Jersey", "adm0_a3": "JEY", "continent": "Europe", "labelrank": 6, "scalerank": 4, "min_zoom": 0.0, "min_label": 5.0, "max_label": 10.0, "pop_est": 107800.0}}, {"type": "Feature", "geometry": {"type": "Point", "coordinates": [-2.561736, 49.463533]}, "properties": {"name": "Guernsey", "adm0_a3": "GGY", "continent": "Europe", "labelrank": 6, "scalerank": 4, "min_zoom": 0.0, "min_label": 5.0, "max_label": 10.0, "pop_est": 62792.0}}, {"type": "Feature", "geometry": {"type": "Point", "coordinates": [-4.530069, 54.220833]}, "properties": {"name": "Isle of Man", "adm0_a3": "IMN", "continent": "Europe", "labelrank": 6, "scalerank": 3, "min_zoom": 0.0, "min_label": 5.0, "max_label": 10.0, "pop_est": 84584.0}}, {"type": "Feature", "geometry": {"type": "Point", "coordinates": [-2.116346, 54.402739]}, "properties": {"name": "United Kingdom", "adm0_a3": "GBR", "continent": "Europe", "labelrank": 2, "scalerank": 1, "min_zoom": 0.0, "min_label": 1.7, "max_label": 6.7, "pop_est": 66834405.0}}, {"type": "Feature", "geometry": {"type": "Point", "coordinates": [54.547256, 23.466285]}, "properties": {"name": "United Arab Emirates", "adm0_a3": "ARE", "continent": "Asia", "labelrank": 4, "scalerank": 1, "min_zoom": 0.0, "min_label": 4.0, "max_label": 9.0, "pop_est": 9770529.0}}, {"type": "Feature", "geometry": {"type": "Point", "coordinates": [32.140865, 49.724739]}, "properties": {"name": "Ukraine", "adm0_a3": "UKR", "continent": "Europe", "labelrank": 3, "scalerank": 1, "min_zoom": 0.0, "min_label": 2.7, "max_label": 7.0, "pop_est": 44385155.0}}, {"type": "Feature", "geometry": {"type": "Point", "coordinates": [32.948555, 1.972589]}, "properties": {"name": "Uganda", "adm0_a3": "UGA", "continent": "Africa", "labelrank": 3, "scalerank": 1, "min_zoom": 0.0, "min_label": 3.0, "max_label": 8.0, "pop_est": 44269594.0}}, {"type": "Feature", "geometry": {"type": "Point", "coordinates": [58.676647, 39.855246]}, "properties": {"name": "Turkmenistan", "adm0_a3": "TKM", "continent": "Asia", "labelrank": 4, "scalerank": 4, "min_zoom": 0.0, "min_label": 3.0, "max_label": 8.0, "pop_est": 5942089.0}}, {"type": "Feature", "geometry": {"type": "Point", "coordinates": [34.508268, 39.345388]}, "properties": {"name": "Turkey", "adm0_a3": "TUR", "continent": "Asia", "labelrank": 2, "scalerank": 3, "min_zoom": 0.0, "min_label": 2.0, "max_label": 7.0, "pop_est": 83429615.0}}, {"type": "Feature", "geometry": {"type": "Point", "coordinates": [9.007881, 33.687263]}, "properties": {"name": "Tunisia", "adm0_a3": "TUN", "continent": "Africa", "labelrank": 3, "scalerank": 1, "min_zoom": 0.0, "min_label": 3.0, "max_label": 8.0, "pop_est": 11694719.0}}, {"type": "Feature", "geometry": {"type": "Point", "coordinates": [-60.9184, 10.9989]}, "properties": {"name": "Trinidad and Tobago", "adm0_a3": "TTO", "continent": "North America", "labelrank": 5, "scalerank": 3, "min_zoom": 0.0, "min_label": 4.5, "max_label": 9.5, "pop_est": 1394973.0}}, {"type": "Feature", "geometry": {"type": "Point", "coordinates": [-175.163014, -21.210026]}, "properties": {"name": "Tonga", "adm0_a3": "TON", "continent": "Oceania", "labelrank": 4, "scalerank": 3, "min_zoom": 0.0, "min_label": 4.0, "max_label": 9.0, "pop_est": 104494.0}}, {"type": "Feature", "geometry": {"type": "Point", "coordinates": [1.058113, 8.80722]}, "properties": {"name": "Togo", "adm0_a3": "TGO", "continent": "Africa", "labelrank": 6, "scalerank": 1, "min_zoom": 0.0, "min_label": 5.0, "max_label": 10.0, "pop_est": 8082366.0}}, {"type": "Feature", "geometry": {"type": "Point", "coordinates": [125.854679, -8.803705]}, "properties": {"name": "Timor-Leste", "adm0_a3": "TLS", "continent": "Asia", "labelrank": 5, "scalerank": 4, "min_zoom": 0.0, "min_label": 4.0, "max_label": 9.0, "pop_est": 1293119.0}}, {"type": "Feature", "geometry": {"type": "Point", "coordinates": [101.073198, 15.45974]}, "properties": {"name": "Thailand", "adm0_a3": "THA", "continent": "Asia", "labelrank": 3, "scalerank": 4, "min_zoom": 0.0, "min_label": 2.7, "max_label": 8.0, "pop_est": 69625582.0}}, {"type": "Feature", "geometry": {"type": "Point", "coordinates": [34.959183, -6.051866]}, "properties": {"name": "Tanzania", "adm0_a3": "TZA", "continent": "Africa", "labelrank": 3, "scalerank": 3, "min_zoom": 0.0, "min_label": 3.0, "max_label": 8.0, "pop_est": 58005463.0}}, {"type": "Feature", "geometry": {"type": "Point", "coordinates": [72.587276, 38.199835]}, "properties": {"name": "Tajikistan", "adm0_a3": "TJK", "continent": "Asia", "labelrank": 4, "scalerank": 1, "min_zoom": 0.0, "min_label": 4.0, "max_label": 9.0, "pop_est": 9321018.0}}, {"type": "Feature", "geometry": {"type": "Point", "coordinates": [120.868204, 23.652408]}, "properties": {"name": "Taiwan", "adm0_a3": "TWN", "continent": "Asia", "labelrank": 3, "scalerank": 1, "min_zoom": 0.0, "min_label": 4.5, "max_label": 8.0, "pop_est": 23568378.0}}, {"type": "Feature", "geometry": {"type": "Point", "coordinates": [38.277783, 35.006636]}, "properties": {"name": "Syria", "adm0_a3": "SYR", "continent": "Asia", "labelrank": 3, "scalerank": 1, "min_zoom": 0.0, "min_label": 3.0, "max_label": 8.0, "pop_est": 17070135.0}}, {"type": "Feature", "geometry": {"type": "Point", "coordinates": [7.463965, 46.719114]}, "properties": {"name": "Switzerland", "adm0_a3": "CHE", "continent": "Europe", "labelrank": 4, "scalerank": 1, "min_zoom": 0.0, "min_label": 4.0, "max_label": 9.0, "pop_est": 8574832.0}}, {"type": "Feature", "geometry": {"type": "Point", "coordinates": [19.01705, 65.85918]}, "properties": {"name": "Sweden", "adm0_a3": "SWE", "continent": "Europe", "labelrank": 3, "scalerank": 3, "min_zoom": 0.0, "min_label": 2.0, "max_label": 7.0, "pop_est": 10285453.0}}, {"type": "Feature", "geometry": {"type": "Point", "coordinates": [31.467264, -26.533676]}, "properties": {"name": "eSwatini", "adm0_a3": "SWZ", "continent": "Africa", "labelrank": 4, "scalerank": 1, "min_zoom": 0.0, "min_label": 4.0, "max_label": 9.0, "pop_est": 1148130.0}}, {"type": "Feature", "geometry": {"type": "Point", "coordinates": [-55.91094, 4.143987]}, "properties": {"name": "Suriname", "adm0_a3": "SUR", "continent": "South America", "labelrank": 4, "scalerank": 1, "min_zoom": 0.0, "min_label": 4.0, "max_label": 9.0, "pop_est": 581363.0}}, {"type": "Feature", "geometry": {"type": "Point", "coordinates": [30.390151, 7.230477]}, "properties": {"name": "S. Sudan", "adm0_a3": "SDS", "continent": "Africa", "labelrank": 3, "scalerank": 1, "min_zoom": 0.0, "min_label": 3.0, "max_label": 8.0, "pop_est": 11062113.0}}, {"type": "Feature", "geometry": {"type": "Point", "coordinates": [29.260657, 16.330746]}, "properties": {"name": "Sudan", "adm0_a3": "SDN", "continent": "Africa", "labelrank": 3, "scalerank": 1, "min_zoom": 0.0, "min_label": 2.5, "max_label": 8.0, "pop_est": 42813238.0}}, {"type": "Feature", "geometry": {"type": "Point", "coordinates": [80.704823, 7.581097]}, "properties": {"name": "Sri Lanka", "adm0_a3": "LKA", "continent": "Asia", "labelrank": 3, "scalerank": 4, "min_zoom": 0.0, "min_label": 3.0, "max_label": 8.0, "pop_est": 21803000.0}}, {"type": "Feature", "geometry": {"type": "Point", "coordinates": [-3.464718, 40.090953]}, "properties": {"name": "Spain", "adm0_a3": "ESP", "continent": "Europe", "labelrank": 2, "scalerank": 4, "min_zoom": 0.0, "min_label": 2.0, "max_label": 7.0, "pop_est": 47076781.0}}, {"type": "Feature", "geometry": {"type": "Point", "coordinates": [128.129504, 36.384924]}, "properties": {"name": "South Korea", "adm0_a3": "KOR", "continent": "Asia", "labelrank": 2, "scalerank": 1, "min_zoom": 0.0, "min_label": 2.5, "max_label": 7.0, "pop_est": 51709098.0}}, {"type": "Feature", "geometry": {"type": "Point", "coordinates": [23.665734, -29.708776]}, "properties": {"name": "South Africa", "adm0_a3": "ZAF", "continent": "Africa", "labelrank": 2, "scalerank": 1, "min_zoom": 0.0, "min_label": 1.7, "max_label": 6.7, "pop_est": 58558270.0}}, {"type": "Feature", "geometry": {"type": "Point", "coordinates": [45.19238, 3.568925]}, "properties": {"name": "Somalia", "adm0_a3": "SOM", "continent": "Africa", "labelrank": 6, "scalerank": 1, "min_zoom": 0.0, "min_label": 4.0, "max_label": 9.0, "pop_est": 10192317.3}}, {"type": "Feature", "geometry": {"type": "Point", "coordinates": [46.731595, 9.443889]}, "properties": {"name": "Somaliland", "adm0_a3": "SOL", "continent": "Africa", "labelrank": 5, "scalerank": 1, "min_zoom": 4.0, "min_label": 4.5, "max_label": 9.0, "pop_est": 5096159.0}}, {"type": "Feature", "geometry": {"type": "Point", "coordinates": [159.170468, -8.029548]}, "properties": {"name": "Solomon Is.", "adm0_a3": "SLB", "continent": "Oceania", "labelrank": 3, "scalerank": 4, "min_zoom": 0.0, "min_label": 3.0, "max_label": 8.0, "pop_est": 669823.0}}, {"type": "Feature", "geometry": {"type": "Point", "coordinates": [19.049868, 48.734044]}, "properties": {"name": "Slovakia", "adm0_a3": "SVK", "continent": "Europe", "labelrank": 6, "scalerank": 1, "min_zoom": 0.0, "min_label": 4.0, "max_label": 9.0, "pop_est": 5454073.0}}, {"type": "Feature", "geometry": {"type": "Point", "coordinates": [14.915312, 46.06076]}, "properties": {"name": "Slovenia", "adm0_a3": "SVN", "continent": "Europe", "labelrank": 6, "scalerank": 1, "min_zoom": 0.0, "min_label": 5.0, "max_label": 10.0, "pop_est": 2087946.0}}, {"type": "Feature", "geometry": {"type": "Point", "coordinates": [103.816925, 1.366587]}, "properties": {"name": "Singapore", "adm0_a3": "SGP", "continent": "Asia", "labelrank": 6, "scalerank": 3, "min_zoom": 0.0, "min_label": 4.0, "max_label": 9.0, "pop_est": 5703569.0}}, {"type": "Feature", "geometry": {"type": "Point", "coordinates": [-11.763677, 8.617449]}, "properties": {"name": "Sierra Leone", "adm0_a3": "SLE", "continent": "Africa", "labelrank": 4, "scalerank": 1, "min_zoom": 0.0, "min_label": 4.0, "max_label": 9.0, "pop_est": 7813215.0}}, {"type": "Feature", "geometry": {"type": "Point", "coordinates": [55.480175, -4.676659]}, "properties": {"name": "Seychelles", "adm0_a3": "SYC", "continent": "Seven seas (open ocean)", "labelrank": 6, "scalerank": 1, "min_zoom": 0.0, "min_label": 5.0, "max_label": 10.0, "pop_est": 97625.0}}, {"type": "Feature", "geometry": {"type": "Point", "coordinates": [20.787989, 44.189919]}, "properties": {"name": "Serbia", "adm0_a3": "SRB", "continent": "Europe", "labelrank": 5, "scalerank": 1, "min_zoom": 0.0, "min_label": 4.0, "max_label": 7.0, "pop_est": 6944975.0}}, {"type": "Feature", "geometry": {"type": "Point", "coordinates": [-14.778586, 15.138125]}, "properties": {"name": "Senegal", "adm0_a3": "SEN", "continent": "Africa", "labelrank": 3, "scalerank": 1, "min_zoom": 0.0, "min_label": 2.7, "max_label": 8.0, "pop_est": 16296364.0}}, {"type": "Feature", "geometry": {"type": "Point", "coordinates": [44.6996, 23.806908]}, "properties": {"name": "Saudi Arabia", "adm0_a3": "SAU", "continent": "Asia", "labelrank": 2, "scalerank": 4, "min_zoom": 0.0, "min_label": 1.7, "max_label": 7.0, "pop_est": 34268528.0}}, {"type": "Feature", "geometry": {"type": "Point", "coordinates": [7.021, 0.9709]}, "properties": {"name": "São Tomé and Principe", "adm0_a3": "STP", "continent": "Africa", "labelrank": 6, "scalerank": 1, "min_zoom": 0.0, "min_label": 5.0, "max_label": 10.0, "pop_est": 215056.0}}, {"type": "Feature", "geometry": {"type": "Point", "coordinates": [12.441206, 43.933916]}, "properties": {"name": "San Marino", "adm0_a3": "SMR", "continent": "Europe", "labelrank": 6, "scalerank": 3, "min_zoom": 0.0, "min_label": 5.0, "max_label": 10.0, "pop_est": 33860.0}}, {"type": "Feature", "geometry": {"type": "Point", "coordinates": [-172.438241, -13.639139]}, "properties": {"name": "Samoa", "adm0_a3": "WSM", "continent": "Oceania", "labelrank": 4, "scalerank": 1, "min_zoom": 0.0, "min_label": 3.0, "max_label": 8.0, "pop_est": 197097.0}}, {"type": "Feature", "geometry": {"type": "Point", "coordinates": [-61.3359, 13.0879]}, "properties": {"name": "St. Vin. and Gren.", "adm0_a3": "VCT", "continent": "North America", "labelrank": 6, "scalerank": 1, "min_zoom": 0.0, "min_label": 5.0, "max_label": 10.0, "pop_est": 110589.0}}, {"type": "Feature", "geometry": {"type": "Point", "coordinates": [-60.980094, 13.892371]}, "properties": {"name": "Saint Lucia", "adm0_a3": "LCA", "continent": "North America", "labelrank": 6, "scalerank": 1, "min_zoom": 0.0, "min_label": 5.0, "max_label": 9.5, "pop_est": 182790.0}}, {"type": "Feature", "geometry": {"type": "Point", "coordinates": [-62.757975, 17.336558]}, "properties": {"name": "St. Kitts and Nevis", "adm0_a3": "KNA", "continent": "North America", "labelrank": 6, "scalerank": 3, "min_zoom": 0.0, "min_label": 5.0, "max_label": 10.0, "pop_est": 52834.0}}, {"type": "Feature", "geometry": {"type": "Point", "coordinates": [30.103894, -1.897196]}, "properties": {"name": "Rwanda", "adm0_a3": "RWA", "continent": "Africa", "labelrank": 3, "scalerank": 1, "min_zoom": 0.0, "min_label": 3.0, "max_label": 8.0, "pop_est": 12626950.0}}, {"type": "Feature", "geometry": {"type": "Point", "coordinates": [44.686469, 58.249357]}, "properties": {"name": "Russia", "adm0_a3": "RUS", "continent": "Europe", "labelrank": 2, "scalerank": 5, "min_zoom": 0.0, "min_label": 1.7, "max_label": 5.2, "pop_est": 144373535.0}}, {"type": "Feature", "geometry": {"type": "Point", "coordinates": [24.972624, 45.733237]}, "properties": {"name": "Romania", "adm0_a3": "ROU", "continent": "Europe", "labelrank": 3, "scalerank": 1, "min_zoom": 0.0, "min_label": 3.0, "max_label": 8.0, "pop_est": 19356544.0}}, {"type": "Feature", "geometry": {"type": "Point", "coordinates": [51.143509, 25.237383]}, "properties": {"name": "Qatar", "adm0_a3": "QAT", "continent": "Asia", "labelrank": 5, "scalerank": 1, "min_zoom": 0.0, "min_label": 4.0, "max_label": 9.0, "pop_est": 2832067.0}}, {"type": "Feature", "geometry": {"type": "Point", "coordinates": [-8.271754, 39.606675]}, "properties": {"name": "Portugal", "adm0_a3": "PRT", "continent": "Europe", "labelrank": 2, "scalerank": 3, "min_zoom": 0.0, "min_label": 3.0, "max_label": 8.0, "pop_est": 10269417.0}}, {"type": "Feature", "geometry": {"type": "Point", "coordinates": [19.490468, 51.990316]}, "properties": {"name": "Poland", "adm0_a3": "POL", "continent": "Europe", "labelrank": 3, "scalerank": 1, "min_zoom": 0.0, "min_label": 2.5, "max_label": 7.0, "pop_est": 37970874.0}}, {"type": "Feature", "geometry": {"type": "Point", "coordinates": [122.465, 11.198]}, "properties": {"name": "Philippines", "adm0_a3": "PHL", "continent": "Asia", "labelrank": 2, "scalerank": 1, "min_zoom": 0.0, "min_label": 2.5, "max_label": 7.0, "pop_est": 108116615.0}}, {"type": "Feature", "geometry": {"type": "Point", "coordinates": [-72.90016, -12.976679]}, "properties": {"name": "Peru", "adm0_a3": "PER", "continent": "South America", "labelrank": 2, "scalerank": 1, "min_zoom": 0.0, "min_label": 2.0, "max_label": 7.0, "pop_est": 32510453.0}}, {"type": "Feature", "geometry": {"type": "Point", "coordinates": [-60.146394, -21.674509]}, "properties": {"name": "Paraguay", "adm0_a3": "PRY", "continent": "South America", "labelrank": 4, "scalerank": 1, "min_zoom": 0.0, "min_label": 3.0, "max_label": 8.0, "pop_est": 7044636.0}}, {"type": "Feature", "geometry": {"type": "Point", "coordinates": [143.910216, -5.695285]}, "properties": {"name": "Papua New Guinea", "adm0_a3": "PNG", "continent": "Oceania", "labelrank": 2, "scalerank": 1, "min_zoom": 0.0, "min_label": 2.5, "max_label": 7.5, "pop_est": 8776109.0}}, {"type": "Feature", "geometry": {"type": "Point", "coordinates": [-80.352106, 8.72198]}, "properties": {"name": "Panama", "adm0_a3": "PAN", "continent": "North America", "labelrank": 4, "scalerank": 1, "min_zoom": 0.0, "min_label": 4.0, "max_label": 9.0, "pop_est": 4246439.0}}, {"type": "Feature", "geometry": {"type": "Point", "coordinates": [134.580157, 7.518252]}, "properties": {"name": "Palau", "adm0_a3": "PLW", "continent": "Oceania", "labelrank": 6, "scalerank": 4, "min_zoom": 0.0, "min_label": 5.0, "max_label": 10.0, "pop_est": 18008.0}}, {"type": "Feature", "geometry": {"type": "Point", "coordinates": [68.545632, 29.328389]}, "properties": {"name": "Pakistan", "adm0_a3": "PAK", "continent": "Asia", "labelrank": 2, "scalerank": 1, "min_zoom": 0.0, "min_label": 2.7, "max_label": 7.0, "pop_est": 216565318.0}}, {"type": "Feature", "geometry": {"type": "Point", "coordinates": [57.336553, 22.120427]}, "properties": {"name": "Oman", "adm0_a3": "OMN", "continent": "Asia", "labelrank": 4, "scalerank": 3, "min_zoom": 0.0, "min_label": 4.0, "max_label": 9.0, "pop_est": 4974986.0}}, {"type": "Feature", "geometry": {"type": "Point", "coordinates": [9.679975, 61.357092]}, "properties": {"name": "Norway", "adm0_a3": "NOR", "continent": "Europe", "labelrank": 3, "scalerank": 1, "min_zoom": 0.0, "min_label": 3.0, "max_label": 7.0, "pop_est": 5347896.0}}, {"type": "Feature", "geometry": {"type": "Point", "coordinates": [126.444516, 39.885252]}, "properties": {"name": "North Korea", "adm0_a3": "PRK", "continent": "Asia", "labelrank": 3, "scalerank": 1, "min_zoom": 0.0, "min_label": 3.0, "max_label": 8.0, "pop_est": 25666161.0}}, {"type": "Feature", "geometry": {"type": "Point", "coordinates": [7.50322, 9.439799]}, "properties": {"name": "Nigeria", "adm0_a3": "NGA", "continent": "Africa", "labelrank": 2, "scalerank": 1, "min_zoom": 0.0, "min_label": 1.7, "max_label": 6.7, "pop_est": 200963599.0}}, {"type": "Feature", "geometry": {"type": "Point", "coordinates": [9.504356, 17.446195]}, "properties": {"name": "Niger", "adm0_a3": "NER", "continent": "Africa", "labelrank": 3, "scalerank": 1, "min_zoom": 0.0, "min_label": 3.0, "max_label": 8.0, "pop_est": 23310715.0}}, {"type": "Feature", "geometry": {"type": "Point", "coordinates": [-85.069347, 12.670697]}, "properties": {"name": "Nicaragua", "adm0_a3": "NIC", "continent": "North America", "labelrank": 5, "scalerank": 1, "min_zoom": 0.0, "min_label": 4.0, "max_label": 9.0, "pop_est": 6545502.0}}, {"type": "Feature", "geometry": {"type": "Point", "coordinates": [172.787, -39.759]}, "properties": {"name": "New Zealand", "adm0_a3": "NZL", "continent": "Oceania", "labelrank": 2, "scalerank": 1, "min_zoom": 0.0, "min_label": 2.0, "max_label": 6.7, "pop_est": 4917000.0}}, {"type": "Feature", "geometry": {"type": "Point", "coordinates": [-169.862565, -19.045956]}, "properties": {"name": "Niue", "adm0_a3": "NIU", "continent": "Oceania", "labelrank": 4, "scalerank": 3, "min_zoom": 0.0, "min_label": 4.0, "max_label": 9.0, "pop_est": 1620.0}}, {"type": "Feature", "geometry": {"type": "Point", "coordinates": [-159.785675, -21.215993]}, "properties": {"name": "Cook Is.", "adm0_a3": "COK", "continent": "Oceania", "labelrank": 4, "scalerank": 3, "min_zoom": 0.0, "min_label": 4.0, "max_label": 9.0, "pop_est": 17459.0}}, {"type": "Feature", "geometry": {"type": "Point", "coordinates": [5.61144, 52.422211]}, "properties": {"name": "Netherlands", "adm0_a3": "NLD", "continent": "Europe", "labelrank": 5, "scalerank": 1, "min_zoom": 0.0, "min_label": 4.0, "max_label": 10.0, "pop_est": 17332850.0}}, {"type": "Feature", "geometry": {"type": "Point", "coordinates": [-69.972795, 12.5174]}, "properties": {"name": "Aruba", "adm0_a3": "ABW", "continent": "North America", "labelrank": 5, "scalerank": 3, "min_zoom": 0.0, "min_label": 5.0, "max_label": 10.0, "pop_est": 106314.0}}, {"type": "Feature", "geometry": {"type": "Point", "coordinates": [-68.920578, 12.145039]}, "properties": {"name": "Curaçao", "adm0_a3": "CUW", "continent": "North America", "labelrank": 5, "scalerank": 3, "min_zoom": 0.0, "min_label": 5.0, "max_label": 10.0, "pop_est": 157538.0}}, {"type": "Feature", "geometry": {"type": "Point", "coordinates": [83.639914, 28.297925]}, "properties": {"name": "Nepal", "adm0_a3": "NPL", "continent": "Asia", "labelrank": 3, "scalerank": 1, "min_zoom": 0.0, "min_label": 3.0, "max_label": 8.0, "pop_est": 28608710.0}}, {"type": "Feature", "geometry": {"type": "Point", "coordinates": [166.932644, -0.520261]}, "properties": {"name": "Nauru", "adm0_a3": "NRU", "continent": "Oceania", "labelrank": 6, "scalerank": 3, "min_zoom": 0.0, "min_label": 5.0, "max_label": 10.0, "pop_est": 12581.0}}, {"type": "Feature", "geometry": {"type": "Point", "coordinates": [17.108166, -20.575298]}, "properties": {"name": "Namibia", "adm0_a3": "NAM", "continent": "Africa", "labelrank": 3, "scalerank": 1, "min_zoom": 0.0, "min_label": 3.0, "max_label": 7.5, "pop_est": 2494530.0}}, {"type": "Feature", "geometry": {"type": "Point", "coordinates": [37.83789, -13.94323]}, "properties": {"name": "Mozambique", "adm0_a3": "MOZ", "continent": "Africa", "labelrank": 3, "scalerank": 1, "min_zoom": 0.0, "min_label": 3.0, "max_label": 8.0, "pop_est": 30366036.0}}, {"type": "Feature", "geometry": {"type": "Point", "coordinates": [-7.187296, 31.650723]}, "properties": {"name": "Morocco", "adm0_a3": "MAR", "continent": "Africa", "labelrank": 3, "scalerank": 1, "min_zoom": 0.0, "min_label": 2.7, "max_label": 8.0, "pop_est": 36471769.0}}, {"type": "Feature", "geometry": {"type": "Point", "coordinates": [-12.630304, 23.967592]}, "properties": {"name": "W. Sahara", "adm0_a3": "SAH", "continent": "Africa", "labelrank": 7, "scalerank": 1, "min_zoom": 4.7, "min_label": 6.0, "max_label": 11.0, "pop_est": 603253.0}}, {"type": "Feature", "geometry": {"type": "Point", "coordinates": [19.143727, 42.803101]}, "properties": {"name": "Montenegro", "adm0_a3": "MNE", "continent": "Europe", "labelrank": 6, "scalerank": 1, "min_zoom": 0.0, "min_label": 5.0, "max_label": 10.0, "pop_est": 622137.0}}, {"type": "Feature", "geometry": {"type": "Point", "coordinates": [104.150405, 45.997488]}, "properties": {"name": "Mongolia", "adm0_a3": "MNG", "continent": "Asia", "labelrank": 3, "scalerank": 1, "min_zoom": 0.0, "min_label": 3.0, "max_label": 7.0, "pop_est": 3225167.0}}, {"type": "Feature", "geometry": {"type": "Point", "coordinates": [28.487904, 47.434999]}, "properties": {"name": "Moldova", "adm0_a3": "MDA", "continent": "Europe", "labelrank": 6, "scalerank": 1, "min_zoom": 0.0, "min_label": 5.0, "max_label": 10.0, "pop_est": 2657637.0}}, {"type": "Feature", "geometry": {"type": "Point", "coordinates": [7.398291, 43.739652]}, "properties": {"name": "Monaco", "adm0_a3": "MCO", "continent": "Europe", "labelrank": 6, "scalerank": 6, "min_zoom": 0.0, "min_label": 5.0, "max_label": 10.0, "pop_est": 38964.0}}, {"type": "Feature", "geometry": {"type": "Point", "coordinates": [-102.289448, 23.919988]}, "properties": {"name": "Mexico", "adm0_a3": "MEX", "continent": "North America", "labelrank": 2, "scalerank": 1, "min_zoom": 0.0, "min_label": 2.0, "max_label": 6.7, "pop_est": 127575529.0}}, {"type": "Feature", "geometry": {"type": "Point", "coordinates": [57.565848, -20.299506]}, "properties": {"name": "Mauritius", "adm0_a3": "MUS", "continent": "Seven seas (open ocean)", "labelrank": 5, "scalerank": 1, "min_zoom": 0.0, "min_label": 4.0, "max_label": 9.0, "pop_est": 1265711.0}}, {"type": "Feature", "geometry": {"type": "Point", "coordinates": [-9.740299, 19.587062]}, "properties": {"name": "Mauritania", "adm0_a3": "MRT", "continent": "Africa", "labelrank": 3, "scalerank": 5, "min_zoom": 0.0, "min_label": 3.0, "max_label": 8.0, "pop_est": 4525696.0}}, {"type": "Feature", "geometry": {"type": "Point", "coordinates": [14.433005, 35.892886]}, "properties": {"name": "Malta", "adm0_a3": "MLT", "continent": "Europe", "labelrank": 5, "scalerank": 3, "min_zoom": 0.0, "min_label": 4.0, "max_label": 9.0, "pop_est": 502653.0}}, {"type": "Feature", "geometry": {"type": "Point", "coordinates": [-2.038455, 18.692713]}, "properties": {"name": "Mali", "adm0_a3": "MLI", "continent": "Africa", "labelrank": 3, "scalerank": 1, "min_zoom": 0.0, "min_label": 3.0, "max_label": 7.0, "pop_est": 19658031.0}}, {"type": "Feature", "geometry": {"type": "Point", "coordinates": [73.507554, 4.174441]}, "properties": {"name": "Maldives", "adm0_a3": "MDV", "continent": "Seven seas (open ocean)", "labelrank": 5, "scalerank": 4, "min_zoom": 0.0, "min_label": 4.0, "max_label": 9.0, "pop_est": 530953.0}}, {"type": "Feature", "geometry": {"type": "Point", "coordinates": [113.83708, 2.528667]}, "properties": {"name": "Malaysia", "adm0_a3": "MYS", "continent": "Asia", "labelrank": 3, "scalerank": 1, "min_zoom": 0.0, "min_label": 3.0, "max_label": 8.0, "pop_est": 31949777.0}}, {"type": "Feature", "geometry": {"type": "Point", "coordinates": [33.608082, -13.386737]}, "properties": {"name": "Malawi", "adm0_a3": "MWI", "continent": "Africa", "labelrank": 6, "scalerank": 5, "min_zoom": 0.0, "min_label": 4.0, "max_label": 9.0, "pop_est": 18628747.0}}, {"type": "Feature", "geometry": {"type": "Point", "coordinates": [46.704241, -18.628288]}, "properties": {"name": "Madagascar", "adm0_a3": "MDG", "continent": "Africa", "labelrank": 3, "scalerank": 1, "min_zoom": 0.0, "min_label": 2.7, "max_label": 7.0, "pop_est": 26969307.0}}, {"type": "Feature", "geometry": {"type": "Point", "coordinates": [21.555839, 41.558223]}, "properties": {"name": "North Macedonia", "adm0_a3": "MKD", "continent": "Europe", "labelrank": 6, "scalerank": 1, "min_zoom": 0.0, "min_label": 5.0, "max_label": 10.0, "pop_est": 2083459.0}}, {"type": "Feature", "geometry": {"type": "Point", "coordinates": [6.07762, 49.733732]}, "properties": {"name": "Luxembourg", "adm0_a3": "LUX", "continent": "Europe", "labelrank": 6, "scalerank": 1, "min_zoom": 0.0, "min_label": 5.7, "max_label": 10.0, "pop_est": 619896.0}}, {"type": "Feature", "geometry": {"type": "Point", "coordinates": [24.089932, 55.103703]}, "properties": {"name": "Lithuania", "adm0_a3": "LTU", "continent": "Europe", "labelrank": 5, "scalerank": 3, "min_zoom": 0.0, "min_label": 4.0, "max_label": 9.0, "pop_est": 2786844.0}}, {"type": "Feature", "geometry": {"type": "Point", "coordinates": [9.559439, 47.111405]}, "properties": {"name": "Liechtenstein", "adm0_a3": "LIE", "continent": "Europe", "labelrank": 6, "scalerank": 1, "min_zoom": 0.0, "min_label": 5.0, "max_label": 10.0, "pop_est": 38019.0}}, {"type": "Feature", "geometry": {"type": "Point", "coordinates": [18.011015, 26.638944]}, "properties": {"name": "Libya", "adm0_a3": "LBY", "continent": "Africa", "labelrank": 3, "scalerank": 1, "min_zoom": 0.0, "min_label": 3.0, "max_label": 8.0, "pop_est": 6777452.0}}, {"type": "Feature", "geometry": {"type": "Point", "coordinates": [-9.460379, 6.447177]}, "properties": {"name": "Liberia", "adm0_a3": "LBR", "continent": "Africa", "labelrank": 4, "scalerank": 1, "min_zoom": 0.0, "min_label": 4.0, "max_label": 9.0, "pop_est": 4937374.0}}, {"type": "Feature", "geometry": {"type": "Point", "coordinates": [28.246639, -29.480158]}, "properties": {"name": "Lesotho", "adm0_a3": "LSO", "continent": "Africa", "labelrank": 6, "scalerank": 1, "min_zoom": 0.0, "min_label": 4.0, "max_label": 9.0, "pop_est": 2125268.0}}, {"type": "Feature", "geometry": {"type": "Point", "coordinates": [35.992892, 34.133368]}, "properties": {"name": "Lebanon", "adm0_a3": "LBN", "continent": "Asia", "labelrank": 5, "scalerank": 1, "min_zoom": 0.0, "min_label": 4.0, "max_label": 9.0, "pop_est": 6855713.0}}, {"type": "Feature", "geometry": {"type": "Point", "coordinates": [25.458723, 57.066872]}, "properties": {"name": "Latvia", "adm0_a3": "LVA", "continent": "Europe", "labelrank": 5, "scalerank": 1, "min_zoom": 0.0, "min_label": 4.0, "max_label": 9.0, "pop_est": 1912789.0}}, {"type": "Feature", "geometry": {"type": "Point", "coordinates": [102.533912, 19.431821]}, "properties": {"name": "Laos", "adm0_a3": "LAO", "continent": "Asia", "labelrank": 4, "scalerank": 1, "min_zoom": 0.0, "min_label": 4.0, "max_label": 9.0, "pop_est": 7169455.0}}, {"type": "Feature", "geometry": {"type": "Point", "coordinates": [74.532637, 41.66854]}, "properties": {"name": "Kyrgyzstan", "adm0_a3": "KGZ", "continent": "Asia", "labelrank": 4, "scalerank": 1, "min_zoom": 0.0, "min_label": 3.0, "max_label": 8.0, "pop_est": 6456900.0}}, {"type": "Feature", "geometry": {"type": "Point", "coordinates": [47.313999, 29.413628]}, "properties": {"name": "Kuwait", "adm0_a3": "KWT", "continent": "Asia", "labelrank": 6, "scalerank": 3, "min_zoom": 0.0, "min_label": 5.0, "max_label": 10.0, "pop_est": 4207083.0}}, {"type": "Feature", "geometry": {"type": "Point", "coordinates": [20.860719, 42.593587]}, "properties": {"name": "Kosovo", "adm0_a3": "KOS", "continent": "Europe", "labelrank": 6, "scalerank": 1, "min_zoom": 0.0, "min_label": 5.0, "max_label": 10.0, "pop_est": 1794248.0}}, {"type": "Feature", "geometry": {"type": "Point", "coordinates": [-157.384577, 1.820437]}, "properties": {"name": "Kiribati", "adm0_a3": "KIR", "continent": "Oceania", "labelrank": 6, "scalerank": 5, "min_zoom": 0.0, "min_label": 5.0, "max_label": 10.0, "pop_est": 117606.0}}, {"type": "Feature", "geometry": {"type": "Point", "coordinates": [37.907632, 0.549043]}, "properties": {"name": "Kenya", "adm0_a3": "KEN", "continent": "Africa", "labelrank": 2, "scalerank": 4, "min_zoom": 0.0, "min_label": 1.7, "max_label": 6.7, "pop_est": 52573973.0}}, {"type": "Feature", "geometry": {"type": "Point", "coordinates": [68.685548, 49.054149]}, "properties": {"name": "Kazakhstan", "adm0_a3": "KAZ", "continent": "Asia", "labelrank": 3, "scalerank": 5, "min_zoom": 0.0, "min_label": 2.7, "max_label": 7.0, "pop_est": 18513930.0}}, {"type": "Feature", "geometry": {"type": "Point", "coordinates": [36.375991, 30.805025]}, "properties": {"name": "Jordan", "adm0_a3": "JOR", "continent": "Asia", "labelrank": 4, "scalerank": 1, "min_zoom": 0.0, "min_label": 4.0, "max_label": 9.0, "pop_est": 10101694.0}}, {"type": "Feature", "geometry": {"type": "Point", "coordinates": [138.44217, 36.142538]}, "properties": {"name": "Japan", "adm0_a3": "JPN", "continent": "Asia", "labelrank": 2, "scalerank": 3, "min_zoom": 0.0, "min_label": 1.7, "max_label": 7.0, "pop_est": 126264931.0}}, {"type": "Feature", "geometry": {"type": "Point", "coordinates": [-77.318767, 18.137124]}, "properties": {"name": "Jamaica", "adm0_a3": "JAM", "continent": "North America", "labelrank": 4, "scalerank": 1, "min_zoom": 0.0, "min_label": 4.0, "max_label": 9.0, "pop_est": 2948279.0}}, {"type": "Feature", "geometry": {"type": "Point", "coordinates": [11.076907, 44.732482]}, "properties": {"name": "Italy", "adm0_a3": "ITA", "continent": "Europe", "labelrank": 2, "scalerank": 1, "min_zoom": 0.0, "min_label": 2.0, "max_label": 7.0, "pop_est": 60297396.0}}, {"type": "Feature", "geometry": {"type": "Point", "coordinates": [34.847915, 30.911148]}, "properties": {"name": "Israel", "adm0_a3": "ISR", "continent": "Asia", "labelrank": 4, "scalerank": 1, "min_zoom": 0.0, "min_label": 3.0, "max_label": 8.0, "pop_est": 9053300.0}}, {"type": "Feature", "geometry": {"type": "Point", "coordinates": [35.291341, 32.047431]}, "properties": {"name": "Palestine", "adm0_a3": "PSX", "continent": "Asia", "labelrank": 5, "scalerank": 1, "min_zoom": 7.0, "min_label": 4.5, "max_label": 9.5, "pop_est": 4685306.0}}, {"type": "Feature", "geometry": {"type": "Point", "coordinates": [-7.798588, 53.078726]}, "properties": {"name": "Ireland", "adm0_a3": "IRL", "continent": "Europe", "labelrank": 3, "scalerank": 4, "min_zoom": 0.0, "min_label": 3.0, "max_label": 8.0, "pop_est": 4941444.0}}, {"type": "Feature", "geometry": {"type": "Point", "coordinates": [43.26181, 33.09403]}, "properties": {"name": "Iraq", "adm0_a3": "IRQ", "continent": "Asia", "labelrank": 3, "scalerank": 1, "min_zoom": 0.0, "min_label": 3.0, "max_label": 7.5, "pop_est": 39309783.0}}, {"type": "Feature", "geometry": {"type": "Point", "coordinates": [54.931495, 32.166225]}, "properties": {"name": "Iran", "adm0_a3": "IRN", "continent": "Asia", "labelrank": 2, "scalerank": 3, "min_zoom": 0.0, "min_label": 2.5, "max_label": 6.7, "pop_est": 82913906.0}}, {"type": "Feature", "geometry": {"type": "Point", "coordinates": [101.892949, -0.954404]}, "properties": {"name": "Indonesia", "adm0_a3": "IDN", "continent": "Asia", "labelrank": 2, "scalerank": 3, "min_zoom": 0.0, "min_label": 1.7, "max_label": 6.7, "pop_est": 270625568.0}}, {"type": "Feature", "geometry": {"type": "Point", "coordinates": [79.358105, 22.686852]}, "properties": {"name": "India", "adm0_a3": "IND", "continent": "Asia", "labelrank": 2, "scalerank": 1, "min_zoom": 0.0, "min_label": 1.7, "max_label": 6.7, "pop_est": 1366417754.0}}, {"type": "Feature", "geometry": {"type": "Point", "coordinates": [-18.673711, 64.779286]}, "properties": {"name": "Iceland", "adm0_a3": "ISL", "continent": "Europe", "labelrank": 3, "scalerank": 1, "min_zoom": 0.0, "min_label": 2.0, "max_label": 7.0, "pop_est": 361313.0}}, {"type": "Feature", "geometry": {"type": "Point", "coordinates": [19.447867, 47.086841]}, "properties": {"name": "Hungary", "adm0_a3": "HUN", "continent": "Europe", "labelrank": 5, "scalerank": 1, "min_zoom": 0.0, "min_label": 4.0, "max_label": 9.0, "pop_est": 9769949.0}}, {"type": "Feature", "geometry": {"type": "Point", "coordinates": [-86.887604, 14.794801]}, "properties": {"name": "Honduras", "adm0_a3": "HND", "continent": "North America", "labelrank": 5, "scalerank": 1, "min_zoom": 0.0, "min_label": 4.5, "max_label": 9.5, "pop_est": 9746117.0}}, {"type": "Feature", "geometry": {"type": "Point", "coordinates": [-72.224051, 19.263784]}, "properties": {"name": "Haiti", "adm0_a3": "HTI", "continent": "North America", "labelrank": 5, "scalerank": 1, "min_zoom": 0.0, "min_label": 4.0, "max_label": 9.0, "pop_est": 11263077.0}}, {"type": "Feature", "geometry": {"type": "Point", "coordinates": [-58.942643, 5.124317]}, "properties": {"name": "Guyana", "adm0_a3": "GUY", "continent": "South America", "labelrank": 4, "scalerank": 1, "min_zoom": 0.0, "min_label": 4.0, "max_label": 9.0, "pop_est": 782766.0}}, {"type": "Feature", "geometry": {"type": "Point", "coordinates": [-14.52413, 12.163712]}, "properties": {"name": "Guinea-Bissau", "adm0_a3": "GNB", "continent": "Africa", "labelrank": 6, "scalerank": 1, "min_zoom": 0.0, "min_label": 5.0, "max_label": 10.0, "pop_est": 1920922.0}}, {"type": "Feature", "geometry": {"type": "Point", "coordinates": [-10.016402, 10.618516]}, "properties": {"name": "Guinea", "adm0_a3": "GIN", "continent": "Africa", "labelrank": 3, "scalerank": 1, "min_zoom": 0.0, "min_label": 3.0, "max_label": 8.0, "pop_est": 12771246.0}}, {"type": "Feature", "geometry": {"type": "Point", "coordinates": [-90.497134, 14.982133]}, "properties": {"name": "Guatemala", "adm0_a3": "GTM", "continent": "North America", "labelrank": 3, "scalerank": 1, "min_zoom": 0.0, "min_label": 3.0, "max_label": 8.0, "pop_est": 16604026.0}}, {"type": "Feature", "geometry": {"type": "Point", "coordinates": [-61.680461, 12.113156]}, "properties": {"name": "Grenada", "adm0_a3": "GRD", "continent": "North America", "labelrank": 6, "scalerank": 1, "min_zoom": 0.0, "min_label": 4.0, "max_label": 9.0, "pop_est": 112003.0}}, {"type": "Feature", "geometry": {"type": "Point", "coordinates": [21.72568, 39.492763]}, "properties": {"name": "Greece", "adm0_a3": "GRC", "continent": "Europe", "labelrank": 3, "scalerank": 3, "min_zoom": 0.0, "min_label": 2.7, "max_label": 8.0, "pop_est": 10716322.0}}, {"type": "Feature", "geometry": {"type": "Point", "coordinates": [-1.036941, 7.717639]}, "properties": {"name": "Ghana", "adm0_a3": "GHA", "continent": "Africa", "labelrank": 3, "scalerank": 1, "min_zoom": 0.0, "min_label": 2.7, "max_label": 8.0, "pop_est": 30417856.0}}, {"type": "Feature", "geometry": {"type": "Point", "coordinates": [9.678348, 50.961733]}, "properties": {"name": "Germany", "adm0_a3": "DEU", "continent": "Europe", "labelrank": 2, "scalerank": 1, "min_zoom": 0.0, "min_label": 1.7, "max_label": 6.7, "pop_est": 83132799.0}}, {"type": "Feature", "geometry": {"type": "Point", "coordinates": [43.735724, 41.870087]}, "properties": {"name": "Georgia", "adm0_a3": "GEO", "continent": "Asia", "labelrank": 5, "scalerank": 1, "min_zoom": 0.0, "min_label": 4.0, "max_label": 9.0, "pop_est": 3720382.0}}, {"type": "Feature", "geometry": {"type": "Point", "coordinates": [-14.998318, 13.641721]}, "properties": {"name": "Gambia", "adm0_a3": "GMB", "continent": "Africa", "labelrank": 6, "scalerank": 1, "min_zoom": 0.0, "min_label": 5.0, "max_label": 10.0, "pop_est": 2347706.0}}, {"type": "Feature", "geometry": {"type": "Point", "coordinates": [11.835939, -0.437739]}, "properties": {"name": "Gabon", "adm0_a3": "GAB", "continent": "Africa", "labelrank": 4, "scalerank": 1, "min_zoom": 0.0, "min_label": 3.0, "max_label": 8.0, "pop_est": 2172579.0}}, {"type": "Feature", "geometry": {"type": "Point", "coordinates": [2.552275, 46.696113]}, "properties": {"name": "France", "adm0_a3": "FRA", "continent": "Europe", "labelrank": 2, "scalerank": 1, "min_zoom": 0.0, "min_label": 1.7, "max_label": 6.7, "pop_est": 67059887.0}}, {"type": "Feature", "geometry": {"type": "Point", "coordinates": [-56.332352, 47.040344]}, "properties": {"name": "St. Pierre and Miquelon", "adm0_a3": "SPM", "continent": "North America", "labelrank": 4, "scalerank": 4, "min_zoom": 0.0, "min_label": 5.0, "max_label": 10.0, "pop_est": 5997.0}}, {"type": "Feature", "geometry": {"type": "Point", "coordinates": [-178.137436, -14.286415]}, "properties": {"name": "Wallis and Futuna Is.", "adm0_a3": "WLF", "continent": "Oceania", "labelrank": 4, "scalerank": 3, "min_zoom": 0.0, "min_label": 4.7, "max_label": 9.0, "pop_est": 11558.0}}, {"type": "Feature", "geometry": {"type": "Point", "coordinates": [-63.049399, 18.081302]}, "properties": {"name": "St-Martin", "adm0_a3": "MAF", "continent": "North America", "labelrank": 6, "scalerank": 3, "min_zoom": 0.0, "min_label": 5.0, "max_label": 10.0, "pop_est": 38002.0}}, {"type": "Feature", "geometry": {"type": "Point", "coordinates": [-62.833193, 17.901987]}, "properties": {"name": "St-Barthélemy", "adm0_a3": "BLM", "continent": "North America", "labelrank": 6, "scalerank": 3, "min_zoom": 0.0, "min_label": 5.7, "max_label": 10.0, "pop_est": 9961.0}}, {"type": "Feature", "geometry": {"type": "Point", "coordinates": [-149.46157, -17.628081]}, "properties": {"name": "Fr. Polynesia", "adm0_a3": "PYF", "continent": "Oceania", "labelrank": 4, "scalerank": 3, "min_zoom": 0.0, "min_label": 3.5, "max_label": 8.5, "pop_est": 279287.0}}, {"type": "Feature", "geometry": {"type": "Point", "coordinates": [165.084004, -21.064697]}, "properties": {"name": "New Caledonia", "adm0_a3": "NCL", "continent": "Oceania", "labelrank": 3, "scalerank": 1, "min_zoom": 0.0, "min_label": 4.6, "max_label": 8.0, "pop_est": 287800.0}}, {"type": "Feature", "geometry": {"type": "Point", "coordinates": [69.122136, -49.303721]}, "properties": {"name": "Fr. S. Antarctic Lands", "adm0_a3": "ATF", "continent": "Seven seas (open ocean)", "labelrank": 6, "scalerank": 3, "min_zoom": 0.0, "min_label": 4.0, "max_label": 9.0, "pop_est": 140.0}}, {"type": "Feature", "geometry": {"type": "Point", "coordinates": [19.869671, 60.156467]}, "properties": {"name": "Åland", "adm0_a3": "ALD", "continent": "Europe", "labelrank": 6, "scalerank": 3, "min_zoom": 0.0, "min_label": 5.0, "max_label": 10.0, "pop_est": 29884.0}}, {"type": "Feature", "geometry": {"type": "Point", "coordinates": [27.276449, 63.252361]}, "properties": {"name": "Finland", "adm0_a3": "FIN", "continent": "Europe", "labelrank": 3, "scalerank": 1, "min_zoom": 0.0, "min_label": 3.0, "max_label": 8.0, "pop_est": 5520314.0}}, {"type": "Feature", "geometry": {"type": "Point", "coordinates": [177.975427, -17.826099]}, "properties": {"name": "Fiji", "adm0_a3": "FJI", "continent": "Oceania", "labelrank": 6, "scalerank": 1, "min_zoom": 0.0, "min_label": 3.0, "max_label": 8.0, "pop_est": 889953.0}}, {"type": "Feature", "geometry": {"type": "Point", "coordinates": [39.0886, 8.032795]}, "properties": {"name": "Ethiopia", "adm0_a3": "ETH", "continent": "Africa", "labelrank": 2, "scalerank": 1, "min_zoom": 0.0, "min_label": 2.0, "max_label": 7.0, "pop_est": 112078730.0}}, {"type": "Feature", "geometry": {"type": "Point", "coordinates": [25.867126, 58.724865]}, "properties": {"name": "Estonia", "adm0_a3": "EST", "continent": "Europe", "labelrank": 6, "scalerank": 1, "min_zoom": 0.0, "min_label": 3.0, "max_label": 8.0, "pop_est": 1326590.0}}, {"type": "Feature", "geometry": {"type": "Point", "coordinates": [38.285566, 15.787401]}, "properties": {"name": "Eritrea", "adm0_a3": "ERI", "continent": "Africa", "labelrank": 4, "scalerank": 1, "min_zoom": 0.0, "min_label": 4.0, "max_label": 9.0, "pop_est": 6081196.0}}, {"type": "Feature", "geometry": {"type": "Point", "coordinates": [8.9902, 2.333]}, "properties": {"name": "Eq. Guinea", "adm0_a3": "GNQ", "continent": "Africa", "labelrank": 4, "scalerank": 1, "min_zoom": 0.0, "min_label": 4.0, "max_label": 9.0, "pop_est": 1355986.0}}, {"type": "Feature", "geometry": {"type": "Point", "coordinates": [-88.890124, 13.685371]}, "properties": {"name": "El Salvador", "adm0_a3": "SLV", "continent": "North America", "labelrank": 6, "scalerank": 1, "min_zoom": 0.0, "min_label": 5.0, "max_label": 10.0, "pop_est": 6453553.0}}, {"type": "Feature", "geometry": {"type": "Point", "coordinates": [29.445837, 26.186173]}, "properties": {"name": "Egypt", "adm0_a3": "EGY", "continent": "Africa", "labelrank": 2, "scalerank": 1, "min_zoom": 0.0, "min_label": 1.7, "max_label": 6.7, "pop_est": 100388073.0}}, {"type": "Feature", "geometry": {"type": "Point", "coordinates": [-78.188375, -1.259076]}, "properties": {"name": "Ecuador", "adm0_a3": "ECU", "continent": "South America", "labelrank": 3, "scalerank": 1, "min_zoom": 0.0, "min_label": 3.0, "max_label": 8.0, "pop_est": 17373662.0}}, {"type": "Feature", "geometry": {"type": "Point", "coordinates": [-70.653998, 19.104137]}, "properties": {"name": "Dominican Rep.", "adm0_a3": "DOM", "continent": "North America", "labelrank": 5, "scalerank": 1, "min_zoom": 0.0, "min_label": 4.5, "max_label": 9.5, "pop_est": 10738958.0}}, {"type": "Feature", "geometry": {"type": "Point", "coordinates": [-61.344958, 15.458829]}, "properties": {"name": "Dominica", "adm0_a3": "DMA", "continent": "North America", "labelrank": 6, "scalerank": 1, "min_zoom": 0.0, "min_label": 4.0, "max_label": 9.0, "pop_est": 71808.0}}, {"type": "Feature", "geometry": {"type": "Point", "coordinates": [42.498825, 11.976343]}, "properties": {"name": "Djibouti", "adm0_a3": "DJI", "continent": "Africa", "labelrank": 5, "scalerank": 1, "min_zoom": 0.0, "min_label": 4.0, "max_label": 9.0, "pop_est": 973560.0}}, {"type": "Feature", "geometry": {"type": "Point", "coordinates": [-39.335251, 74.319387]}, "properties": {"name": "Greenland", "adm0_a3": "GRL", "continent": "North America", "labelrank": 3, "scalerank": 1, "min_zoom": 0.0, "min_label": 1.7, "max_label": 6.7, "pop_est": 56225.0}}, {"type": "Feature", "geometry": {"type": "Point", "coordinates": [-7.058429, 62.185604]}, "properties": {"name": "Faeroe Is.", "adm0_a3": "FRO", "continent": "Europe", "labelrank": 6, "scalerank": 3, "min_zoom": 0.0, "min_label": 4.0, "max_label": 9.0, "pop_est": 48678.0}}, {"type": "Feature", "geometry": {"type": "Point", "coordinates": [9.018163, 55.966965]}, "properties": {"name": "Denmark", "adm0_a3": "DNK", "continent": "Europe", "labelrank": 4, "scalerank": 1, "min_zoom": 0.0, "min_label": 3.0, "max_label": 8.0, "pop_est": 5818553.0}}, {"type": "Feature", "geometry": {"type": "Point", "coordinates": [15.377555, 49.882364]}, "properties": {"name": "Czechia", "adm0_a3": "CZE", "continent": "Europe", "labelrank": 5, "scalerank": 1, "min_zoom": 0.0, "min_label": 4.0, "max_label": 9.0, "pop_est": 10669709.0}}, {"type": "Feature", "geometry": {"type": "Point", "coordinates": [33.692434, 35.216071]}, "properties": {"name": "N. Cyprus", "adm0_a3": "CYN", "continent": "Asia", "labelrank": 6, "scalerank": 1, "min_zoom": 0.0, "min_label": 6.0, "max_label": 10.0, "pop_est": 326000.0}}, {"type": "Feature", "geometry": {"type": "Point", "coordinates": [33.084182, 34.913329]}, "properties": {"name": "Cyprus", "adm0_a3": "CYP", "continent": "Asia", "labelrank": 5, "scalerank": 1, "min_zoom": 0.0, "min_label": 4.5, "max_label": 9.5, "pop_est": 1198575.0}}, {"type": "Feature", "geometry": {"type": "Point", "coordinates": [-77.975855, 21.334024]}, "properties": {"name": "Cuba", "adm0_a3": "CUB", "continent": "North America", "labelrank": 3, "scalerank": 1, "min_zoom": 0.0, "min_label": 2.7, "max_label": 8.0, "pop_est": 11333483.0}}, {"type": "Feature", "geometry": {"type": "Point", "coordinates": [16.37241, 45.805799]}, "properties": {"name": "Croatia", "adm0_a3": "HRV", "continent": "Europe", "labelrank": 6, "scalerank": 1, "min_zoom": 0.0, "min_label": 4.0, "max_label": 9.0, "pop_est": 4067500.0}}, {"type": "Feature", "geometry": {"type": "Point", "coordinates": [-5.568618, 7.49139]}, "properties": {"name": "Côte d'Ivoire", "adm0_a3": "CIV", "continent": "Africa", "labelrank": 3, "scalerank": 5, "min_zoom": 0.0, "min_label": 2.5, "max_label": 8.0, "pop_est": 25716544.0}}, {"type": "Feature", "geometry": {"type": "Point", "coordinates": [-84.077922, 10.0651]}, "properties": {"name": "Costa Rica", "adm0_a3": "CRI", "continent": "North America", "labelrank": 5, "scalerank": 1, "min_zoom": 0.0, "min_label": 2.5, "max_label": 8.0, "pop_est": 5047561.0}}, {"type": "Feature", "geometry": {"type": "Point", "coordinates": [23.458829, -1.858167]}, "properties": {"name": "Dem. Rep. Congo", "adm0_a3": "COD", "continent": "Africa", "labelrank": 2, "scalerank": 1, "min_zoom": 0.0, "min_label": 2.0, "max_label": 7.0, "pop_est": 86790567.0}}, {"type": "Feature", "geometry": {"type": "Point", "coordinates": [15.9005, 0.142331]}, "properties": {"name": "Congo", "adm0_a3": "COG", "continent": "Africa", "labelrank": 4, "scalerank": 1, "min_zoom": 0.0, "min_label": 4.0, "max_label": 9.0, "pop_est": 5380508.0}}, {"type": "Feature", "geometry": {"type": "Point", "coordinates": [43.318094, -11.727683]}, "properties": {"name": "Comoros", "adm0_a3": "COM", "continent": "Africa", "labelrank": 6, "scalerank": 3, "min_zoom": 0.0, "min_label": 4.0, "max_label": 9.0, "pop_est": 850886.0}}, {"type": "Feature", "geometry": {"type": "Point", "coordinates": [-73.174347, 3.373111]}, "properties": {"name": "Colombia", "adm0_a3": "COL", "continent": "South America", "labelrank": 2, "scalerank": 1, "min_zoom": 0.0, "min_label": 3.0, "max_label": 7.0, "pop_est": 50339443.0}}, {"type": "Feature", "geometry": {"type": "Point", "coordinates": [106.337289, 32.498178]}, "properties": {"name": "China", "adm0_a3": "CHN", "continent": "Asia", "labelrank": 2, "scalerank": 3, "min_zoom": 0.0, "min_label": 1.7, "max_label": 5.7, "pop_est": 1397715000.0}}, {"type": "Feature", "geometry": {"type": "Point", "coordinates": [113.556038, 22.129735]}, "properties": {"name": "Macao", "adm0_a3": "MAC", "continent": "Asia", "labelrank": 4, "scalerank": 3, "min_zoom": 0.0, "min_label": 4.0, "max_label": 9.0, "pop_est": 640445.0}}, {"type": "Feature", "geometry": {"type": "Point", "coordinates": [114.097769, 22.448829]}, "properties": {"name": "Hong Kong", "adm0_a3": "HKG", "continent": "Asia", "labelrank": 4, "scalerank": 3, "min_zoom": 0.0, "min_label": 4.0, "max_label": 9.0, "pop_est": 7507400.0}}, {"type": "Feature", "geometry": {"type": "Point", "coordinates": [-72.318871, -38.151771]}, "properties": {"name": "Chile", "adm0_a3": "CHL", "continent": "South America", "labelrank": 2, "scalerank": 4, "min_zoom": 0.0, "min_label": 1.7, "max_label": 6.7, "pop_est": 18952038.0}}, {"type": "Feature", "geometry": {"type": "Point", "coordinates": [18.645041, 15.142959]}, "properties": {"name": "Chad", "adm0_a3": "TCD", "continent": "Africa", "labelrank": 3, "scalerank": 1, "min_zoom": 0.0, "min_label": 3.0, "max_label": 8.0, "pop_est": 15946876.0}}, {"type": "Feature", "geometry": {"type": "Point", "coordinates": [20.906897, 6.989681]}, "properties": {"name": "Central African Rep.", "adm0_a3": "CAF", "continent": "Africa", "labelrank": 4, "scalerank": 1, "min_zoom": 0.0, "min_label": 4.0, "max_label": 9.0, "pop_est": 4745185.0}}, {"type": "Feature", "geometry": {"type": "Point", "coordinates": [-23.639434, 15.074761]}, "properties": {"name": "Cabo Verde", "adm0_a3": "CPV", "continent": "Africa", "labelrank": 4, "scalerank": 1, "min_zoom": 0.0, "min_label": 4.0, "max_label": 9.0, "pop_est": 549935.0}}, {"type": "Feature", "geometry": {"type": "Point", "coordinates": [-101.9107, 60.324287]}, "properties": {"name": "Canada", "adm0_a3": "CAN", "continent": "North America", "labelrank": 2, "scalerank": 1, "min_zoom": 0.0, "min_label": 1.7, "max_label": 5.7, "pop_est": 37589262.0}}, {"type": "Feature", "geometry": {"type": "Point", "coordinates": [12.473488, 4.585041]}, "properties": {"name": "Cameroon", "adm0_a3": "CMR", "continent": "Africa", "labelrank": 3, "scalerank": 1, "min_zoom": 0.0, "min_label": 3.0, "max_label": 8.0, "pop_est": 25876380.0}}, {"type": "Feature", "geometry": {"type": "Point", "coordinates": [104.50487, 12.647584]}, "properties": {"name": "Cambodia", "adm0_a3": "KHM", "continent": "Asia", "labelrank": 3, "scalerank": 1, "min_zoom": 0.0, "min_label": 3.0, "max_label": 8.0, "pop_est": 16486542.0}}, {"type": "Feature", "geometry": {"type": "Point", "coordinates": [95.804497, 21.573855]}, "properties": {"name": "Myanmar", "adm0_a3": "MMR", "continent": "Asia", "labelrank": 3, "scalerank": 1, "min_zoom": 0.0, "min_label": 3.0, "max_label": 8.0, "pop_est": 54045420.0}}, {"type": "Feature", "geometry": {"type": "Point", "coordinates": [29.917086, -3.332836]}, "properties": {"name": "Burundi", "adm0_a3": "BDI", "continent": "Africa", "labelrank": 6, "scalerank": 1, "min_zoom": 0.0, "min_label": 4.0, "max_label": 9.0, "pop_est": 11530580.0}}, {"type": "Feature", "geometry": {"type": "Point", "coordinates": [-1.36388, 12.673048]}, "properties": {"name": "Burkina Faso", "adm0_a3": "BFA", "continent": "Africa", "labelrank": 3, "scalerank": 1, "min_zoom": 0.0, "min_label": 3.0, "max_label": 8.0, "pop_est": 20321378.0}}, {"type": "Feature", "geometry": {"type": "Point", "coordinates": [25.15709, 42.508785]}, "properties": {"name": "Bulgaria", "adm0_a3": "BGR", "continent": "Europe", "labelrank": 4, "scalerank": 1, "min_zoom": 0.0, "min_label": 4.0, "max_label": 9.0, "pop_est": 6975761.0}}, {"type": "Feature", "geometry": {"type": "Point", "coordinates": [114.551943, 4.448298]}, "properties": {"name": "Brunei", "adm0_a3": "BRN", "continent": "Asia", "labelrank": 6, "scalerank": 1, "min_zoom": 0.0, "min_label": 4.0, "max_label": 9.0, "pop_est": 433285.0}}, {"type": "Feature", "geometry": {"type": "Point", "coordinates": [-49.55945, -12.098687]}, "properties": {"name": "Brazil", "adm0_a3": "BRA", "continent": "South America", "labelrank": 2, "scalerank": 1, "min_zoom": 0.0, "min_label": 1.7, "max_label": 5.7, "pop_est": 211049527.0}}, {"type": "Feature", "geometry": {"type": "Point", "coordinates": [24.179216, -22.102634]}, "properties": {"name": "Botswana", "adm0_a3": "BWA", "continent": "Africa", "labelrank": 4, "scalerank": 1, "min_zoom": 0.0, "min_label": 4.0, "max_label": 9.0, "pop_est": 2303697.0}}, {"type": "Feature", "geometry": {"type": "Point", "coordinates": [18.06841, 44.091051]}, "properties": {"name": "Bosnia and Herz.", "adm0_a3": "BIH", "continent": "Europe", "labelrank": 5, "scalerank": 1, "min_zoom": 0.0, "min_label": 4.5, "max_label": 6.8, "pop_est": 3301000.0}}, {"type": "Feature", "geometry": {"type": "Point", "coordinates": [-64.593433, -16.666015]}, "properties": {"name": "Bolivia", "adm0_a3": "BOL", "continent": "South America", "labelrank": 3, "scalerank": 1, "min_zoom": 0.0, "min_label": 3.0, "max_label": 7.5, "pop_est": 11513100.0}}, {"type": "Feature", "geometry": {"type": "Point", "coordinates": [90.040294, 27.536685]}, "properties": {"name": "Bhutan", "adm0_a3": "BTN", "continent": "Asia", "labelrank": 5, "scalerank": 1, "min_zoom": 0.0, "min_label": 4.0, "max_label": 9.0, "pop_est": 763092.0}}, {"type": "Feature", "geometry": {"type": "Point", "coordinates": [2.352018, 10.324775]}, "properties": {"name": "Benin", "adm0_a3": "BEN", "continent": "Africa", "labelrank": 5, "scalerank": 1, "min_zoom": 0.0, "min_label": 4.0, "max_label": 9.0, "pop_est": 11801151.0}}, {"type": "Feature", "geometry": {"type": "Point", "coordinates": [-88.712962, 17.202068]}, "properties": {"name": "Belize", "adm0_a3": "BLZ", "continent": "North America", "labelrank": 6, "scalerank": 1, "min_zoom": 0.0, "min_label": 5.0, "max_label": 10.0, "pop_est": 390353.0}}, {"type": "Feature", "geometry": {"type": "Point", "coordinates": [4.800448, 50.785392]}, "properties": {"name": "Belgium", "adm0_a3": "BEL", "continent": "Europe", "labelrank": 2, "scalerank": 1, "min_zoom": 0.0, "min_label": 4.0, "max_label": 9.0, "pop_est": 11484055.0}}, {"type": "Feature", "geometry": {"type": "Point", "coordinates": [28.417701, 53.821888]}, "properties": {"name": "Belarus", "adm0_a3": "BLR", "continent": "Europe", "labelrank": 4, "scalerank": 1, "min_zoom": 0.0, "min_label": 3.0, "max_label": 8.0, "pop_est": 9466856.0}}, {"type": "Feature", "geometry": {"type": "Point", "coordinates": [-59.568966, 13.163709]}, "properties": {"name": "Barbados", "adm0_a3": "BRB", "continent": "North America", "labelrank": 5, "scalerank": 1, "min_zoom": 0.0, "min_label": 4.5, "max_label": 9.5, "pop_est": 287025.0}}, {"type": "Feature", "geometry": {"type": "Point", "coordinates": [89.684963, 24.214956]}, "properties": {"name": "Bangladesh", "adm0_a3": "BGD", "continent": "Asia", "labelrank": 3, "scalerank": 1, "min_zoom": 0.0, "min_label": 3.0, "max_label": 8.0, "pop_est": 163046161.0}}, {"type": "Feature", "geometry": {"type": "Point", "coordinates": [50.554816, 26.055972]}, "properties": {"name": "Bahrain", "adm0_a3": "BHR", "continent": "Asia", "labelrank": 4, "scalerank": 1, "min_zoom": 0.0, "min_label": 4.0, "max_label": 9.0, "pop_est": 1641172.0}}, {"type": "Feature", "geometry": {"type": "Point", "coordinates": [-77.146688, 26.401789]}, "properties": {"name": "Bahamas", "adm0_a3": "BHS", "continent": "North America", "labelrank": 4, "scalerank": 1, "min_zoom": 0.0, "min_label": 4.0, "max_label": 9.0, "pop_est": 389482.0}}, {"type": "Feature", "geometry": {"type": "Point", "coordinates": [47.210994, 40.402387]}, "properties": {"name": "Azerbaijan", "adm0_a3": "AZE", "continent": "Asia", "labelrank": 5, "scalerank": 1, "min_zoom": 0.0, "min_label": 4.0, "max_label": 9.0, "pop_est": 10023318.0}}, {"type": "Feature", "geometry": {"type": "Point", "coordinates": [14.130515, 47.518859]}, "properties": {"name": "Austria", "adm0_a3": "AUT", "continent": "Europe", "labelrank": 4, "scalerank": 1, "min_zoom": 0.0, "min_label": 3.0, "max_label": 8.0, "pop_est": 8877067.0}}, {"type": "Feature", "geometry": {"type": "Point", "coordinates": [134.04972, -24.129522]}, "properties": {"name": "Australia", "adm0_a3": "AUS", "continent": "Oceania", "labelrank": 2, "scalerank": 1, "min_zoom": 0.0, "min_label": 1.7, "max_label": 5.7, "pop_est": 25364307.0}}, {"type": "Feature", "geometry": {"type": "Point", "coordinates": [105.67259, -10.490789]}, "properties": {"name": "Indian Ocean Ter.", "adm0_a3": "IOA", "continent": "Asia", "labelrank": 5, "scalerank": 5, "min_zoom": 0.0, "min_label": 5.0, "max_label": 9.5, "pop_est": 2387.0}}, {"type": "Feature", "geometry": {"type": "Point", "coordinates": [73.50521, -53.103462]}, "properties": {"name": "Heard I. and McDonald Is.", "adm0_a3": "HMD", "continent": "Seven seas (open ocean)", "labelrank": 5, "scalerank": 5, "min_zoom": 0.0, "min_label": 4.5, "max_label": 9.5, "pop_est": 0.0}}, {"type": "Feature", "geometry": {"type": "Point", "coordinates": [167.954531, -29.033042]}, "properties": {"name": "Norfolk Island", "adm0_a3": "NFK", "continent": "Oceania", "labelrank": 5, "scalerank": 5, "min_zoom": 0.0, "min_label": 4.5, "max_label": 9.5, "pop_est": 2169.0}}, {"type": "Feature", "geometry": {"type": "Point", "coordinates": [123.586368, -12.432571]}, "properties": {"name": "Ashmore and Cartier Is.", "adm0_a3": "ATC", "continent": "Oceania", "labelrank": 5, "scalerank": 5, "min_zoom": 0.0, "min_label": 4.5, "max_label": 9.5, "pop_est": 0.0}}, {"type": "Feature", "geometry": {"type": "Point", "coordinates": [44.800564, 40.459077]}, "properties": {"name": "Armenia", "adm0_a3": "ARM", "continent": "Asia", "labelrank": 6, "scalerank": 1, "min_zoom": 0.0, "min_label": 5.0, "max_label": 10.0, "pop_est": 2957731.0}}, {"type": "Feature", "geometry": {"type": "Point", "coordinates": [-64.173331, -33.501159]}, "properties": {"name": "Argentina", "adm0_a3": "ARG", "continent": "South America", "labelrank": 2, "scalerank": 1, "min_zoom": 0.0, "min_label": 2.0, "max_label": 7.0, "pop_est": 44938712.0}}, {"type": "Feature", "geometry": {"type": "Point", "coordinates": [-61.790612, 17.352249]}, "properties": {"name": "Antigua and Barb.", "adm0_a3": "ATG", "continent": "North America", "labelrank": 6, "scalerank": 1, "min_zoom": 0.0, "min_label": 5.0, "max_label": 9.5, "pop_est": 97118.0}}, {"type": "Feature", "geometry": {"type": "Point", "coordinates": [17.984249, -12.182762]}, "properties": {"name": "Angola", "adm0_a3": "AGO", "continent": "Africa", "labelrank": 3, "scalerank": 1, "min_zoom": 0.0, "min_label": 3.0, "max_label": 7.0, "pop_est": 31825295.0}}, {"type": "Feature", "geometry": {"type": "Point", "coordinates": [1.539409, 42.547643]}, "properties": {"name": "Andorra", "adm0_a3": "AND", "continent": "Europe", "labelrank": 6, "scalerank": 3, "min_zoom": 0.0, "min_label": 5.0, "max_label": 10.0, "pop_est": 77142.0}}, {"type": "Feature", "geometry": {"type": "Point", "coordinates": [2.808241, 27.397406]}, "properties": {"name": "Algeria", "adm0_a3": "DZA", "continent": "Africa", "labelrank": 3, "scalerank": 1, "min_zoom": 0.0, "min_label": 2.5, "max_label": 7.0, "pop_est": 43053054.0}}, {"type": "Feature", "geometry": {"type": "Point", "coordinates": [20.11384, 40.654855]}, "properties": {"name": "Albania", "adm0_a3": "ALB", "continent": "Europe", "labelrank": 6, "scalerank": 1, "min_zoom": 0.0, "min_label": 5.0, "max_label": 10.0, "pop_est": 2854191.0}}, {"type": "Feature", "geometry": {"type": "Point", "coordinates": [66.496586, 34.164262]}, "properties": {"name": "Afghanistan", "adm0_a3": "AFG", "continent": "Asia", "labelrank": 3, "scalerank": 1, "min_zoom": 0.0, "min_label": 3.0, "max_label": 7.0, "pop_est": 38041754.0}}, {"type": "Feature", "geometry": {"type": "Point", "coordinates": [77.129553, 35.340606]}, "properties": {"name": "Siachen Glacier", "adm0_a3": "KAS", "continent": "Asia", "labelrank": 5, "scalerank": 1, "min_zoom": 5.0, "min_label": 6.5, "max_label": 9.5, "pop_est": 6000.0}}, {"type": "Feature", "geometry": {"type": "Point", "coordinates": [35.885455, -79.843222]}, "properties": {"name": "Antarctica", "adm0_a3": "ATA", "continent": "Antarctica", "labelrank": 4, "scalerank": 3, "min_zoom": 0.0, "min_label": 4.0, "max_label": 9.0, "pop_est": 4490.0}}, {"type": "Feature", "geometry": {"type": "Point", "coordinates": [-63.070133, 18.04088]}, "properties": {"name": "Sint Maarten", "adm0_a3": "SXM", "continent": "North America", "labelrank": 6, "scalerank": 3, "min_zoom": 0.0, "min_label": 5.0, "max_label": 10.0, "pop_est": 40733.0}}, {"type": "Feature", "geometry": {"type": "Point", "coordinates": [179.209587, -8.513717]}, "properties": {"name": "Tuvalu", "adm0_a3": "TUV", "continent": "Oceania", "labelrank": 6, "scalerank": 5, "min_zoom": 0.0, "min_label": 5.0, "max_label": 10.0, "pop_est": 11646.0}}]}