{
"type": "FeatureCollection",
"crs": { "type": "name", "properties": { "name": "urn:ogc:def:crs:OGC:1.3:CRS84" } },
"features": [
{ "type": "Feature", "properties": { "name": "Western Australia", "adm0_a3": "AUS", "iso_3166_2": "AU-WA", "postal": "WA" }, "geometry": { "type": "Point", "coordinates": [ 121.208692520573237, -24.344824155700792 ] } },
{ "type": "Feature", "properties": { "name": "Northern Territory", "adm0_a3": "AUS", "iso_3166_2": "AU-NT", "postal": "NT" }, "geometry": { "type": "Point", "coordinates": [ 133.501905269795543, -21.277847720345477 ] } },
{ "type": "Feature", "properties": { "name": "South Australia", "adm0_a3": "AUS", "iso_3166_2": "AU-SA", "postal": "SA" }, "geometry": { "type": "Point", "coordinates": [ 137.032089179004942, -32.101479725031169 ] } },
{ "type": "Feature", "properties": { "name": "Queensland", "adm0_a3": "AUS", "iso_3166_2": "AU-QLD", "postal": "QL" }, "geometry": { "type": "Point", "coordinates": [ 143.068608669310208, -19.927166516477371 ] } },
{ "type": "Feature", "properties": { "name": "Tasmania", "adm0_a3": "AUS", "iso_3166_2": "AU-TAS", "postal": "TS" }, "geometry": { "type": "Point", "coordinates": [ 146.671178294049724, -42.141764531865817 ] } },
{ "type": "Feature", "properties": { "name": "Victoria", "adm0_a3": "AUS", "iso_3166_2": "AU-VIC", "postal": "VI" }, "geometry": { "type": "Point", "coordinates": [ 144.569367467331347, -36.585494788660938 ] } },
{ "type": "Feature", "properties": { "name": "Australian Capital Territory", "adm0_a3": "AUS", "iso_3166_2": "AU-ACT", "postal": "CT" }, "geometry": { "type": "Point", "coordinates": [ 148.954931803879049, -35.545880491190303 ] } },
{ "type": "Feature", "properties": { "name": "Jervis Bay Territory", "adm0_a3": "AUS", "iso_3166_2": "AU-X02~", "postal": "JB" }, "geometry": { "type": "Point", "coordinates": [ 150.674883560647999, -35.150790144087551 ] } },
{ "type": "Feature", "properties": { "name": "New South Wales", "adm0_a3": "AUS", "iso_3166_2": "AU-NSW", "postal": "NS" }, "geometry": { "type": "Point", "coordinates": [ 146.451875231479846, -32.860744890713633 ] } },
{ "type": "Feature", "properties": { "name": "Acre", "adm0_a3": "BRA", "iso_3166_2": "BR-AC", "postal": "AC" }, "geometry": { "type": "Point", "coordinates": [ -70.741217403866258, -9.05663387523699 ] } },
{ "type": "Feature", "properties": { "name": "Rondônia", "adm0_a3": "BRA", "iso_3166_2": "BR-RO", "postal": "RO" }, "geometry": { "type": "Point", "coordinates": [ -63.43530194165605, -10.833683503572928 ] } },
{ "type": "Feature", "properties": { "name": "Roraima", "adm0_a3": "BRA", "iso_3166_2": "BR-RR", "postal": "RR" }, "geometry": { "type": "Point", "coordinates": [ -61.224483950102609, 1.90615096678819 ] } },
{ "type": "Feature", "properties": { "name": "Amazonas", "adm0_a3": "BRA", "iso_3166_2": "BR-AM", "postal": "AM" }, "geometry": { "type": "Point", "coordinates": [ -63.467531735137896, -3.828196175787923 ] } },
{ "type": "Feature", "properties": { "name": "Pará", "adm0_a3": "BRA", "iso_3166_2": "BR-PA", "postal": "PA" }, "geometry": { "type": "Point", "coordinates": [ -52.024789122552804, -3.719859990014584 ] } },
{ "type": "Feature", "properties": { "name": "Mato Grosso do Sul", "adm0_a3": "BRA", "iso_3166_2": "BR-MS", "postal": "MS" }, "geometry": { "type": "Point", "coordinates": [ -54.779263896873232, -20.625918984538941 ] } },
{ "type": "Feature", "properties": { "name": "Amapá", "adm0_a3": "BRA", "iso_3166_2": "BR-AP", "postal": "AP" }, "geometry": { "type": "Point", "coordinates": [ -52.032956339216994, 1.599253372073235 ] } },
{ "type": "Feature", "properties": { "name": "Mato Grosso", "adm0_a3": "BRA", "iso_3166_2": "BR-MT", "postal": "MT" }, "geometry": { "type": "Point", "coordinates": [ -55.308712805115448, -12.698931377460866 ] } },
{ "type": "Feature", "properties": { "name": "Paraná", "adm0_a3": "BRA", "iso_3166_2": "BR-PR", "postal": "PR" }, "geometry": { "type": "Point", "coordinates": [ -51.818727150812002, -24.597169136030082 ] } },
{ "type": "Feature", "properties": { "name": "Distrito Federal", "adm0_a3": "BRA", "iso_3166_2": "BR-DF", "postal": "DF" }, "geometry": { "type": "Point", "coordinates": [ -47.786724908060606, -15.784584571341064 ] } },
{ "type": "Feature", "properties": { "name": "Goiás", "adm0_a3": "BRA", "iso_3166_2": "BR-GO", "postal": "GO" }, "geometry": { "type": "Point", "coordinates": [ -50.252040935883272, -15.947599714278347 ] } },
{ "type": "Feature", "properties": { "name": "Tocantins", "adm0_a3": "BRA", "iso_3166_2": "BR-TO", "postal": "TO" }, "geometry": { "type": "Point", "coordinates": [ -48.418010880424291, -9.263528414379387 ] } },
{ "type": "Feature", "properties": { "name": "São Paulo", "adm0_a3": "BRA", "iso_3166_2": "BR-SP", "postal": "SP" }, "geometry": { "type": "Point", "coordinates": [ -49.238130576452363, -22.532343617810142 ] } },
{ "type": "Feature", "properties": { "name": "Maranhão", "adm0_a3": "BRA", "iso_3166_2": "BR-MA", "postal": "MA" }, "geometry": { "type": "Point", "coordinates": [ -45.270251812688926, -5.731577596052404 ] } },
{ "type": "Feature", "properties": { "name": "Rio de Janeiro", "adm0_a3": "BRA", "iso_3166_2": "BR-RJ", "postal": "RJ" }, "geometry": { "type": "Point", "coordinates": [ -42.323166814149779, -22.064677584345098 ] } },
{ "type": "Feature", "properties": { "name": "Piauí", "adm0_a3": "BRA", "iso_3166_2": "BR-PI", "postal": "PI" }, "geometry": { "type": "Point", "coordinates": [ -41.896644061553538, -6.820366700086417 ] } },
{ "type": "Feature", "properties": { "name": "Minas Gerais", "adm0_a3": "BRA", "iso_3166_2": "BR-MG", "postal": "MG" }, "geometry": { "type": "Point", "coordinates": [ -45.160828219482354, -18.544438192246126 ] } },
{ "type": "Feature", "properties": { "name": "Espírito Santo", "adm0_a3": "BRA", "iso_3166_2": "BR-ES", "postal": "ES" }, "geometry": { "type": "Point", "coordinates": [ -40.457995447179087, -19.610375732908416 ] } },
{ "type": "Feature", "properties": { "name": "Bahia", "adm0_a3": "BRA", "iso_3166_2": "BR-BA", "postal": "BA" }, "geometry": { "type": "Point", "coordinates": [ -42.627028214360038, -13.442782724195908 ] } },
{ "type": "Feature", "properties": { "name": "Ceará", "adm0_a3": "BRA", "iso_3166_2": "BR-CE", "postal": "CE" }, "geometry": { "type": "Point", "coordinates": [ -39.449993086166252, -5.335926946193915 ] } },
{ "type": "Feature", "properties": { "name": "Sergipe", "adm0_a3": "BRA", "iso_3166_2": "BR-SE", "postal": "SE" }, "geometry": { "type": "Point", "coordinates": [ -37.152705758318234, -10.519694233782666 ] } },
{ "type": "Feature", "properties": { "name": "Alagoas", "adm0_a3": "BRA", "iso_3166_2": "BR-AL", "postal": "AL" }, "geometry": { "type": "Point", "coordinates": [ -36.724284184268271, -9.613849472664953 ] } },
{ "type": "Feature", "properties": { "name": "Rio Grande do Norte", "adm0_a3": "BRA", "iso_3166_2": "BR-RN", "postal": "RN" }, "geometry": { "type": "Point", "coordinates": [ -36.645984361608484, -5.897745815281851 ] } },
{ "type": "Feature", "properties": { "name": "Pernambuco", "adm0_a3": "BRA", "iso_3166_2": "BR-PE", "postal": "PE" }, "geometry": { "type": "Point", "coordinates": [ -37.931758370084623, -8.386248107476305 ] } },
{ "type": "Feature", "properties": { "name": "Paraíba", "adm0_a3": "BRA", "iso_3166_2": "BR-PB", "postal": "PB" }, "geometry": { "type": "Point", "coordinates": [ -36.753786354726586, -7.094860118760636 ] } },
{ "type": "Feature", "properties": { "name": "Santa Catarina", "adm0_a3": "BRA", "iso_3166_2": "BR-SC", "postal": "SC" }, "geometry": { "type": "Point", "coordinates": [ -49.987169765743786, -27.66469488781253 ] } },
{ "type": "Feature", "properties": { "name": "Rio Grande do Sul", "adm0_a3": "BRA", "iso_3166_2": "BR-RS", "postal": "RS" }, "geometry": { "type": "Point", "coordinates": [ -53.824217512840072, -30.393160568067138 ] } },
{ "type": "Feature", "properties": { "name": "Alberta", "adm0_a3": "CAN", "iso_3166_2": "CA-AB", "postal": "AB" }, "geometry": { "type": "Point", "coordinates": [ -115.000319755958387, 54.363090223720988 ] } },
{ "type": "Feature", "properties": { "name": "British Columbia", "adm0_a3": "CAN", "iso_3166_2": "CA-BC", "postal": "BC" }, "geometry": { "type": "Point", "coordinates": [ -125.195973874064961, 54.509488544735333 ] } },
{ "type": "Feature", "properties": { "name": "Manitoba", "adm0_a3": "CAN", "iso_3166_2": "CA-MB", "postal": "MB" }, "geometry": { "type": "Point", "coordinates": [ -97.218643314149887, 54.509395160942717 ] } },
{ "type": "Feature", "properties": { "name": "New Brunswick", "adm0_a3": "CAN", "iso_3166_2": "CA-NB", "postal": "NB" }, "geometry": { "type": "Point", "coordinates": [ -66.249091089375099, 46.56396700140337 ] } },
{ "type": "Feature", "properties": { "name": "Newfoundland and Labrador", "adm0_a3": "CAN", "iso_3166_2": "CA-NL", "postal": "NL" }, "geometry": { "type": "Point", "coordinates": [ -56.711701670289045, 49.108691829922222 ] } },
{ "type": "Feature", "properties": { "name": "Nova Scotia", "adm0_a3": "CAN", "iso_3166_2": "CA-NS", "postal": "NS" }, "geometry": { "type": "Point", "coordinates": [ -64.222557187556845, 44.772755995574087 ] } },
{ "type": "Feature", "properties": { "name": "Northwest Territories", "adm0_a3": "CAN", "iso_3166_2": "CA-NT", "postal": "NT" }, "geometry": { "type": "Point", "coordinates": [ -121.424836756839142, 65.290251895441941 ] } },
{ "type": "Feature", "properties": { "name": "Nunavut", "adm0_a3": "CAN", "iso_3166_2": "CA-NU", "postal": "NU" }, "geometry": { "type": "Point", "coordinates": [ -100.10571073542134, 65.996848602083972 ] } },
{ "type": "Feature", "properties": { "name": "Ontario", "adm0_a3": "CAN", "iso_3166_2": "CA-ON", "postal": "ON" }, "geometry": { "type": "Point", "coordinates": [ -87.187335537986712, 49.274772158523305 ] } },
{ "type": "Feature", "properties": { "name": "Prince Edward Island", "adm0_a3": "CAN", "iso_3166_2": "CA-PE", "postal": "PE" }, "geometry": { "type": "Point", "coordinates": [ -63.998338031232258, 46.525339070242325 ] } },
{ "type": "Feature", "properties": { "name": "Québec", "adm0_a3": "CAN", "iso_3166_2": "CA-QC", "postal": "QC" }, "geometry": { "type": "Point", "coordinates": [ -73.331391102886357, 53.906723629163551 ] } },
{ "type": "Feature", "properties": { "name": "Saskatchewan", "adm0_a3": "CAN", "iso_3166_2": "CA-SK", "postal": "SK" }, "geometry": { "type": "Point", "coordinates": [ -105.930790012926522, 54.325571911742912 ] } },
{ "type": "Feature", "properties": { "name": "Yukon", "adm0_a3": "CAN", "iso_3166_2": "CA-YT", "postal": "YT" }, "geometry": { "type": "Point", "coordinates": [ -136.797303954875332, 64.83386882139169 ] } },
{ "type": "Feature", "properties": { "name": "Alaska", "adm0_a3": "USA", "iso_3166_2": "US-AK", "postal": "AK" }, "geometry": { "type": "Point", "coordinates": [ -152.019619822242078, 63.087465556529494 ] } },
{ "type": "Feature", "properties": { "name": "Alabama", "adm0_a3": "USA", "iso_3166_2": "US-AL", "postal": "AL" }, "geometry": { "type": "Point", "coordinates": [ -86.718344210892724, 32.577793982521641 ] } },
{ "type": "Feature", "properties": { "name": "Arkansas", "adm0_a3": "USA", "iso_3166_2": "US-AR", "postal": "AR" }, "geometry": { "type": "Point", "coordinates": [ -92.470820413672911, 34.749071531169619 ] } },
{ "type": "Feature", "properties": { "name": "Arizona", "adm0_a3": "USA", "iso_3166_2": "US-AZ", "postal": "AZ" }, "geometry": { "type": "Point", "coordinates": [ -111.679715770178348, 34.1534092770016 ] } },
{ "type": "Feature", "properties": { "name": "California", "adm0_a3": "USA", "iso_3166_2": "US-CA", "postal": "CA" }, "geometry": { "type": "Point", "coordinates": [ -119.963276792796705, 37.243242768892827 ] } },
{ "type": "Feature", "properties": { "name": "Colorado", "adm0_a3": "USA", "iso_3166_2": "US-CO", "postal": "CO" }, "geometry": { "type": "Point", "coordinates": [ -105.533619962027046, 39.032174111549196 ] } },
{ "type": "Feature", "properties": { "name": "Connecticut", "adm0_a3": "USA", "iso_3166_2": "US-CT", "postal": "CT" }, "geometry": { "type": "Point", "coordinates": [ -72.659668068465436, 41.550372449798346 ] } },
{ "type": "Feature", "properties": { "name": "District of Columbia", "adm0_a3": "USA", "iso_3166_2": "US-DC", "postal": "DC" }, "geometry": { "type": "Point", "coordinates": [ -76.992780656339562, 38.902277256008105 ] } },
{ "type": "Feature", "properties": { "name": "Delaware", "adm0_a3": "USA", "iso_3166_2": "US-DE", "postal": "DE" }, "geometry": { "type": "Point", "coordinates": [ -75.575710862451714, 39.169948164656432 ] } },
{ "type": "Feature", "properties": { "name": "Florida", "adm0_a3": "USA", "iso_3166_2": "US-FL", "postal": "FL" }, "geometry": { "type": "Point", "coordinates": [ -81.691183565378566, 28.025641709261443 ] } },
{ "type": "Feature", "properties": { "name": "Georgia", "adm0_a3": "USA", "iso_3166_2": "US-GA", "postal": "GA" }, "geometry": { "type": "Point", "coordinates": [ -83.246232210747422, 32.667750040640691 ] } },
{ "type": "Feature", "properties": { "name": "Hawaii", "adm0_a3": "USA", "iso_3166_2": "US-HI", "postal": "HI" }, "geometry": { "type": "Point", "coordinates": [ -155.446629603615861, 19.617716583837051 ] } },
{ "type": "Feature", "properties": { "name": "Iowa", "adm0_a3": "USA", "iso_3166_2": "US-IA", "postal": "IA" }, "geometry": { "type": "Point", "coordinates": [ -93.157985741417576, 41.942864530200424 ] } },
{ "type": "Feature", "properties": { "name": "Idaho", "adm0_a3": "USA", "iso_3166_2": "US-ID", "postal": "ID" }, "geometry": { "type": "Point", "coordinates": [ -115.43631086700492, 45.492355022048059 ] } },
{ "type": "Feature", "properties": { "name": "Illinois", "adm0_a3": "USA", "iso_3166_2": "US-IL", "postal": "IL" }, "geometry": { "type": "Point", "coordinates": [ -89.466482095045876, 39.788110419682752 ] } },
{ "type": "Feature", "properties": { "name": "Indiana", "adm0_a3": "USA", "iso_3166_2": "US-IN", "postal": "IN" }, "geometry": { "type": "Point", "coordinates": [ -86.172955418328485, 39.855692819721767 ] } },
{ "type": "Feature", "properties": { "name": "Kansas", "adm0_a3": "USA", "iso_3166_2": "US-KS", "postal": "KS" }, "geometry": { "type": "Point", "coordinates": [ -98.320799708823358, 38.53288393136998 ] } },
{ "type": "Feature", "properties": { "name": "Kentucky", "adm0_a3": "USA", "iso_3166_2": "US-KY", "postal": "KY" }, "geometry": { "type": "Point", "coordinates": [ -84.751463170193972, 37.811466667521969 ] } },
{ "type": "Feature", "properties": { "name": "Louisiana", "adm0_a3": "USA", "iso_3166_2": "US-LA", "postal": "LA" }, "geometry": { "type": "Point", "coordinates": [ -91.648837432754874, 30.974438208467852 ] } },
{ "type": "Feature", "properties": { "name": "Massachusetts", "adm0_a3": "USA", "iso_3166_2": "US-MA", "postal": "MA" }, "geometry": { "type": "Point", "coordinates": [ -72.090411165016349, 42.196456458819497 ] } },
{ "type": "Feature", "properties": { "name": "Maryland", "adm0_a3": "USA", "iso_3166_2": "US-MD", "postal": "MD" }, "geometry": { "type": "Point", "coordinates": [ -75.976784713928197, 38.831624177141023 ] } },
{ "type": "Feature", "properties": { "name": "Maine", "adm0_a3": "USA", "iso_3166_2": "US-ME", "postal": "ME" }, "geometry": { "type": "Point", "coordinates": [ -69.173738989895867, 45.266574984138359 ] } },
{ "type": "Feature", "properties": { "name": "Michigan", "adm0_a3": "USA", "iso_3166_2": "US-MI", "postal": "MI" }, "geometry": { "type": "Point", "coordinates": [ -84.527300355566581, 44.978496970219354 ] } },
{ "type": "Feature", "properties": { "name": "Minnesota", "adm0_a3": "USA", "iso_3166_2": "US-MN", "postal": "MN" }, "geometry": { "type": "Point", "coordinates": [ -94.491948417626816, 46.42266084366922 ] } },
{ "type": "Feature", "properties": { "name": "Missouri", "adm0_a3": "USA", "iso_3166_2": "US-MO", "postal": "MO" }, "geometry": { "type": "Point", "coordinates": [ -92.497841816048236, 38.306939098532112 ] } },
{ "type": "Feature", "properties": { "name": "Mississippi", "adm0_a3": "USA", "iso_3166_2": "US-MS", "postal": "MS" }, "geometry": { "type": "Point", "coordinates": [ -89.762293438332208, 32.605622352723834 ] } },
{ "type": "Feature", "properties": { "name": "Montana", "adm0_a3": "USA", "iso_3166_2": "US-MT", "postal": "MT" }, "geometry": { "type": "Point", "coordinates": [ -109.321414625901525, 46.691699550221287 ] } },
{ "type": "Feature", "properties": { "name": "North Carolina", "adm0_a3": "USA", "iso_3166_2": "US-NC", "postal": "NC" }, "geometry": { "type": "Point", "coordinates": [ -80.409847495865108, 35.232387589645725 ] } },
{ "type": "Feature", "properties": { "name": "North Dakota", "adm0_a3": "USA", "iso_3166_2": "US-ND", "postal": "ND" }, "geometry": { "type": "Point", "coordinates": [ -100.442204126485265, 47.446224115136928 ] } },
{ "type": "Feature", "properties": { "name": "Nebraska", "adm0_a3": "USA", "iso_3166_2": "US-NE", "postal": "NE" }, "geometry": { "type": "Point", "coordinates": [ -100.008380960176339, 41.510733776411243 ] } },
{ "type": "Feature", "properties": { "name": "New Hampshire", "adm0_a3": "USA", "iso_3166_2": "US-NH", "postal": "NH" }, "geometry": { "type": "Point", "coordinates": [ -71.552009160803692, 43.99431968658223 ] } },
{ "type": "Feature", "properties": { "name": "New Jersey", "adm0_a3": "USA", "iso_3166_2": "US-NJ", "postal": "NJ" }, "geometry": { "type": "Point", "coordinates": [ -74.419771053760044, 40.117024616800165 ] } },
{ "type": "Feature", "properties": { "name": "New Mexico", "adm0_a3": "USA", "iso_3166_2": "US-NM", "postal": "NM" }, "geometry": { "type": "Point", "coordinates": [ -106.050961833068897, 34.067688448536295 ] } },
{ "type": "Feature", "properties": { "name": "Nevada", "adm0_a3": "USA", "iso_3166_2": "US-NV", "postal": "NV" }, "geometry": { "type": "Point", "coordinates": [ -116.633267194093364, 38.459671037952134 ] } },
{ "type": "Feature", "properties": { "name": "New York", "adm0_a3": "USA", "iso_3166_2": "US-NY", "postal": "NY" }, "geometry": { "type": "Point", "coordinates": [ -76.096401492236552, 42.886958194144412 ] } },
{ "type": "Feature", "properties": { "name": "Ohio", "adm0_a3": "USA", "iso_3166_2": "US-OH", "postal": "OH" }, "geometry": { "type": "Point", "coordinates": [ -82.706173954229598, 40.381915984326838 ] } },
{ "type": "Feature", "properties": { "name": "Oklahoma", "adm0_a3": "USA", "iso_3166_2": "US-OK", "postal": "OK" }, "geometry": { "type": "Point", "coordinates": [ -97.220388987595058, 35.345909322491863 ] } },
{ "type": "Feature", "properties": { "name": "Oregon", "adm0_a3": "USA", "iso_3166_2": "US-OR", "postal": "OR" }, "geometry": { "type": "Point", "coordinates": [ -120.540489428344699, 44.099063342921639 ] } },
{ "type": "Feature", "properties": { "name": "Pennsylvania", "adm0_a3": "USA", "iso_3166_2": "US-PA", "postal": "PA" }, "geometry": { "type": "Point", "coordinates": [ -77.741661495385983, 41.11122692523378 ] } },
{ "type": "Feature", "properties": { "name": "Rhode Island", "adm0_a3": "USA", "iso_3166_2": "US-RI", "postal": "RI" }, "geometry": { "type": "Point", "coordinates": [ -71.593355883076811, 41.674408099061182 ] } },
{ "type": "Feature", "properties": { "name": "South Carolina", "adm0_a3": "USA", "iso_3166_2": "US-SC", "postal": "SC" }, "geometry": { "type": "Point", "coordinates": [ -80.541172224310031, 33.590793899094216 ] } },
{ "type": "Feature", "properties": { "name": "South Dakota", "adm0_a3": "USA", "iso_3166_2": "US-SD", "postal": "SD" }, "geometry": { "type": "Point", "coordinates": [ -100.243772634089368, 44.21298607675962 ] } },
{ "type": "Feature", "properties": { "name": "Tennessee", "adm0_a3": "USA", "iso_3166_2": "US-TN", "postal": "TN" }, "geometry": { "type": "Point", "coordinates": [ -86.356323229440335, 35.839887612820014 ] } },
{ "type": "Feature", "properties": { "name": "Texas", "adm0_a3": "USA", "iso_3166_2": "US-TX", "postal": "TX" }, "geometry": { "type": "Point", "coordinates": [ -99.668667643515661, 31.195087630947462 ] } },
{ "type": "Feature", "properties": { "name": "Utah", "adm0_a3": "USA", "iso_3166_2": "US-UT", "postal": "UT" }, "geometry": { "type": "Point", "coordinates": [ -111.543958654818383, 39.501735286688103 ] } },
{ "type": "Feature", "properties": { "name": "Virginia", "adm0_a3": "USA", "iso_3166_2": "US-VA", "postal": "VA" }, "geometry": { "type": "Point", "coordinates": [ -78.45840683054017, 37.987192992584774 ] } },
{ "type": "Feature", "properties": { "name": "Vermont", "adm0_a3": "USA", "iso_3166_2": "US-VT", "postal": "VT" }, "geometry": { "type": "Point", "coordinates": [ -72.787899936346022, 43.839989236359045 ] } },
{ "type": "Feature", "properties": { "name": "Washington", "adm0_a3": "USA", "iso_3166_2": "US-WA", "postal": "WA" }, "geometry": { "type": "Point", "coordinates": [ -119.773120064071975, 47.291432239114897 ] } },
{ "type": "Feature", "properties": { "name": "Wisconsin", "adm0_a3": "USA", "iso_3166_2": "US-WI", "postal": "WI" }, "geometry": { "type": "Point", "coordinates": [ -89.723092879080355, 44.890232806696105 ] } },
{ "type": "Feature", "properties": { "name": "West Virginia", "adm0_a3": "USA", "iso_3166_2": "US-WV", "postal": "WV" }, "geometry": { "type": "Point", "coordinates": [ -80.265417324815758, 38.929100377148501 ] } },
{ "type": "Feature", "properties": { "name": "Wyoming", "adm0_a3": "USA", "iso_3166_2": "US-WY", "postal": "WY" }, "geometry": { "type": "Point", "coordinates": [ -107.539735866071311, 42.969520453153308 ] } },
{ "type": "Feature", "properties": { "name": "Gansu", "adm0_a3": "CHN", "iso_3166_2": "CN-GS", "postal": "GS" }, "geometry": { "type": "Point", "coordinates": [ 102.881115957264115, 37.678566087005294 ] } },
{ "type": "Feature", "properties": { "name": "Qinghai", "adm0_a3": "CHN", "iso_3166_2": "CN-QH", "postal": "QH" }, "geometry": { "type": "Point", "coordinates": [ 96.016693858896815, 35.421119900113297 ] } },
{ "type": "Feature", "properties": { "name": "Guangxi", "adm0_a3": "CHN", "iso_3166_2": "CN-GX", "postal": "GX" }, "geometry": { "type": "Point", "coordinates": [ 108.994934429657775, 23.889317328881617 ] } },
{ "type": "Feature", "properties": { "name": "Guizhou", "adm0_a3": "CHN", "iso_3166_2": "CN-GZ", "postal": "GZ" }, "geometry": { "type": "Point", "coordinates": [ 106.622592728024372, 26.928434149616294 ] } },
{ "type": "Feature", "properties": { "name": "Chongqing", "adm0_a3": "CHN", "iso_3166_2": "CN-CQ", "postal": "CQ" }, "geometry": { "type": "Point", "coordinates": [ 107.850268015581889, 30.183920193312247 ] } },
{ "type": "Feature", "properties": { "name": "Beijing", "adm0_a3": "CHN", "iso_3166_2": "CN-BJ", "postal": "BJ" }, "geometry": { "type": "Point", "coordinates": [ 116.626134890181916, 40.228836778294664 ] } },
{ "type": "Feature", "properties": { "name": "Fujian", "adm0_a3": "CHN", "iso_3166_2": "CN-FJ", "postal": "FJ" }, "geometry": { "type": "Point", "coordinates": [ 117.809812102855403, 25.964956617310854 ] } },
{ "type": "Feature", "properties": { "name": "Anhui", "adm0_a3": "CHN", "iso_3166_2": "CN-AH", "postal": "AH" }, "geometry": { "type": "Point", "coordinates": [ 117.143451505909283, 31.985631924223895 ] } },
{ "type": "Feature", "properties": { "name": "Guangdong", "adm0_a3": "CHN", "iso_3166_2": "CN-GD", "postal": "GD" }, "geometry": { "type": "Point", "coordinates": [ 114.863171358988126, 22.883276367187499 ] } },
{ "type": "Feature", "properties": { "name": "Xizang", "adm0_a3": "CHN", "iso_3166_2": "CN-XZ", "postal": "XZ" }, "geometry": { "type": "Point", "coordinates": [ 87.049109414658062, 31.88396296519214 ] } },
{ "type": "Feature", "properties": { "name": "Sikkim", "adm0_a3": "IND", "iso_3166_2": "IN-SK", "postal": "SK" }, "geometry": { "type": "Point", "coordinates": [ 88.43155060915646, 27.604904486597363 ] } },
{ "type": "Feature", "properties": { "name": "Xinjiang", "adm0_a3": "CHN", "iso_3166_2": "CN-XJ", "postal": "XJ" }, "geometry": { "type": "Point", "coordinates": [ 87.093493219878042, 41.750100511230769 ] } },
{ "type": "Feature", "properties": { "name": "Hainan", "adm0_a3": "CHN", "iso_3166_2": "CN-HI", "postal": "HA" }, "geometry": { "type": "Point", "coordinates": [ 109.617304913024839, 19.189453125 ] } },
{ "type": "Feature", "properties": { "name": "Ningxia", "adm0_a3": "CHN", "iso_3166_2": "CN-NX", "postal": "NX" }, "geometry": { "type": "Point", "coordinates": [ 105.973111031331143, 37.320345058427677 ] } },
{ "type": "Feature", "properties": { "name": "Shaanxi", "adm0_a3": "CHN", "iso_3166_2": "CN-SN", "postal": "SA" }, "geometry": { "type": "Point", "coordinates": [ 109.570850230886037, 35.649064643368575 ] } },
{ "type": "Feature", "properties": { "name": "Shanxi", "adm0_a3": "CHN", "iso_3166_2": "CN-SX", "postal": "SX" }, "geometry": { "type": "Point", "coordinates": [ 112.435099343789759, 37.648865057776192 ] } },
{ "type": "Feature", "properties": { "name": "Hubei", "adm0_a3": "CHN", "iso_3166_2": "CN-HB", "postal": "HU" }, "geometry": { "type": "Point", "coordinates": [ 112.945430554359362, 31.163123989980136 ] } },
{ "type": "Feature", "properties": { "name": "Hunan", "adm0_a3": "CHN", "iso_3166_2": "CN-HN", "postal": "HN" }, "geometry": { "type": "Point", "coordinates": [ 111.363689158908755, 27.369505418640131 ] } },
{ "type": "Feature", "properties": { "name": "Sichuan", "adm0_a3": "CHN", "iso_3166_2": "CN-SC", "postal": "SC" }, "geometry": { "type": "Point", "coordinates": [ 102.292095956842914, 30.183920193312247 ] } },
{ "type": "Feature", "properties": { "name": "Yunnan", "adm0_a3": "CHN", "iso_3166_2": "CN-YN", "postal": "YN" }, "geometry": { "type": "Point", "coordinates": [ 101.247191813865257, 25.184496669801696 ] } },
{ "type": "Feature", "properties": { "name": "Hebei", "adm0_a3": "CHN", "iso_3166_2": "CN-HE", "postal": "HB" }, "geometry": { "type": "Point", "coordinates": [ 115.64003649039374, 39.320700995754351 ] } },
{ "type": "Feature", "properties": { "name": "Henan", "adm0_a3": "CHN", "iso_3166_2": "CN-HA", "postal": "HE" }, "geometry": { "type": "Point", "coordinates": [ 113.115761855087015, 33.862377834619338 ] } },
{ "type": "Feature", "properties": { "name": "Liaoning", "adm0_a3": "CHN", "iso_3166_2": "CN-LN", "postal": "LN" }, "geometry": { "type": "Point", "coordinates": [ 122.416776119000886, 41.116935024431797 ] } },
{ "type": "Feature", "properties": { "name": "Shandong", "adm0_a3": "CHN", "iso_3166_2": "CN-SD", "postal": "SD" }, "geometry": { "type": "Point", "coordinates": [ 118.041915573486804, 36.294939934842304 ] } },
{ "type": "Feature", "properties": { "name": "Tianjin", "adm0_a3": "CHN", "iso_3166_2": "CN-TJ", "postal": "TJ" }, "geometry": { "type": "Point", "coordinates": [ 117.353246726633898, 39.445809638104294 ] } },
{ "type": "Feature", "properties": { "name": "Jiangxi", "adm0_a3": "CHN", "iso_3166_2": "CN-JX", "postal": "JX" }, "geometry": { "type": "Point", "coordinates": [ 115.483351352112848, 27.252535814376301 ] } },
{ "type": "Feature", "properties": { "name": "Jiangsu", "adm0_a3": "CHN", "iso_3166_2": "CN-JS", "postal": "JS" }, "geometry": { "type": "Point", "coordinates": [ 119.940530649769983, 32.942873236460656 ] } },
{ "type": "Feature", "properties": { "name": "Shanghai", "adm0_a3": "CHN", "iso_3166_2": "CN-SH", "postal": "SH" }, "geometry": { "type": "Point", "coordinates": [ 121.353361703110863, 31.100829318474023 ] } },
{ "type": "Feature", "properties": { "name": "Zhejiang", "adm0_a3": "CHN", "iso_3166_2": "CN-ZJ", "postal": "ZJ" }, "geometry": { "type": "Point", "coordinates": [ 119.740890370839921, 29.168548027733525 ] } },
{ "type": "Feature", "properties": { "name": "Jilin", "adm0_a3": "CHN", "iso_3166_2": "CN-JL", "postal": "JL" }, "geometry": { "type": "Point", "coordinates": [ 126.157626514620986, 43.573800564544399 ] } },
{ "type": "Feature", "properties": { "name": "Inner Mongol", "adm0_a3": "CHN", "iso_3166_2": "CN-NM", "postal": "NM" }, "geometry": { "type": "Point", "coordinates": [ 118.355796509514391, 45.340462754897473 ] } },
{ "type": "Feature", "properties": { "name": "Heilongjiang", "adm0_a3": "CHN", "iso_3166_2": "CN-HL", "postal": "HL" }, "geometry": { "type": "Point", "coordinates": [ 127.586575997317496, 48.511354479375683 ] } },
{ "type": "Feature", "properties": { "name": "Aceh", "adm0_a3": "IDN", "iso_3166_2": "ID-AC", "postal": "AC" }, "geometry": { "type": "Point", "coordinates": [ 97.142516887228084, 3.881675523206809 ] } },
{ "type": "Feature", "properties": { "name": "Kalimantan Timur", "adm0_a3": "IDN", "iso_3166_2": "ID-KI", "postal": "KI" }, "geometry": { "type": "Point", "coordinates": [ 115.93585502603986, 1.007055664062499 ] } },
{ "type": "Feature", "properties": { "name": "Jawa Barat", "adm0_a3": "IDN", "iso_3166_2": "ID-JB", "postal": "JR" }, "geometry": { "type": "Point", "coordinates": [ 107.637819976510443, -6.885496717949167 ] } },
{ "type": "Feature", "properties": { "name": "Jawa Tengah", "adm0_a3": "IDN", "iso_3166_2": "ID-JT", "postal": "JT" }, "geometry": { "type": "Point", "coordinates": [ 109.921792278349614, -7.351101372330476 ] } },
{ "type": "Feature", "properties": { "name": "Bengkulu", "adm0_a3": "IDN", "iso_3166_2": "ID-BE", "postal": "BE" }, "geometry": { "type": "Point", "coordinates": [ 102.521215476495883, -3.534719333130738 ] } },
{ "type": "Feature", "properties": { "name": "Banten", "adm0_a3": "IDN", "iso_3166_2": "ID-BT", "postal": "BT" }, "geometry": { "type": "Point", "coordinates": [ 106.102290578452298, -6.463232421875005 ] } },
{ "type": "Feature", "properties": { "name": "Jakarta Raya", "adm0_a3": "IDN", "iso_3166_2": "ID-JK", "postal": "JK" }, "geometry": { "type": "Point", "coordinates": [ 106.839746825774682, -6.156006361254583 ] } },
{ "type": "Feature", "properties": { "name": "Kalimantan Barat", "adm0_a3": "IDN", "iso_3166_2": "ID-KB", "postal": "KB" }, "geometry": { "type": "Point", "coordinates": [ 111.138516991739948, -0.506695604246466 ] } },
{ "type": "Feature", "properties": { "name": "Lampung", "adm0_a3": "IDN", "iso_3166_2": "ID-LA", "postal": "LA" }, "geometry": { "type": "Point", "coordinates": [ 105.103707578800424, -4.834252414217559 ] } },
{ "type": "Feature", "properties": { "name": "Sumatera Selatan", "adm0_a3": "IDN", "iso_3166_2": "ID-SS", "postal": "SL" }, "geometry": { "type": "Point", "coordinates": [ 104.394894940267093, -3.311528822597098 ] } },
{ "type": "Feature", "properties": { "name": "Bangka-Belitung", "adm0_a3": "IDN", "iso_3166_2": "ID-BB", "postal": "BB" }, "geometry": { "type": "Point", "coordinates": [ 107.922077820144153, -2.891601562500007 ] } },
{ "type": "Feature", "properties": { "name": "Bali", "adm0_a3": "IDN", "iso_3166_2": "ID-BA", "postal": "BA" }, "geometry": { "type": "Point", "coordinates": [ 115.268711285398766, -8.472314453125001 ] } },
{ "type": "Feature", "properties": { "name": "Jawa Timur", "adm0_a3": "IDN", "iso_3166_2": "ID-JI", "postal": "JI" }, "geometry": { "type": "Point", "coordinates": [ 112.805440252391548, -7.751408942230609 ] } },
{ "type": "Feature", "properties": { "name": "Kalimantan Selatan", "adm0_a3": "IDN", "iso_3166_2": "ID-KS", "postal": "KS" }, "geometry": { "type": "Point", "coordinates": [ 115.506249711091854, -2.79083709065921 ] } },
{ "type": "Feature", "properties": { "name": "Nusa Tenggara Timur", "adm0_a3": "IDN", "iso_3166_2": "ID-NT", "postal": "NT" }, "geometry": { "type": "Point", "coordinates": [ 120.589335612688046, -8.518212890625009 ] } },
{ "type": "Feature", "properties": { "name": "Sulawesi Selatan", "adm0_a3": "IDN", "iso_3166_2": "ID-SN", "postal": "SE" }, "geometry": { "type": "Point", "coordinates": [ 119.959452378286755, -3.81044921875 ] } },
{ "type": "Feature", "properties": { "name": "Sulawesi Barat", "adm0_a3": "IDN", "iso_3166_2": "ID-SR", "postal": "SR" }, "geometry": { "type": "Point", "coordinates": [ 119.394156530269925, -2.217450202479994 ] } },
{ "type": "Feature", "properties": { "name": "Kepulauan Riau", "adm0_a3": "IDN", "iso_3166_2": "ID-KR", "postal": "KR" }, "geometry": { "type": "Point", "coordinates": [ 108.209512906461157, 3.935913085937493 ] } },
{ "type": "Feature", "properties": { "name": "Gorontalo", "adm0_a3": "IDN", "iso_3166_2": "ID-GO", "postal": "GO" }, "geometry": { "type": "Point", "coordinates": [ 122.241968492686553, 0.675152899686566 ] } },
{ "type": "Feature", "properties": { "name": "Jambi", "adm0_a3": "IDN", "iso_3166_2": "ID-JA", "postal": "JA" }, "geometry": { "type": "Point", "coordinates": [ 102.734758557108364, -1.759661748107048 ] } },
{ "type": "Feature", "properties": { "name": "Kalimantan Tengah", "adm0_a3": "IDN", "iso_3166_2": "ID-KT", "postal": "KT" }, "geometry": { "type": "Point", "coordinates": [ 113.420277195458652, -1.396942843537403 ] } },
{ "type": "Feature", "properties": { "name": "Papua Barat", "adm0_a3": "IDN", "iso_3166_2": "ID-PB", "postal": "IB" }, "geometry": { "type": "Point", "coordinates": [ 130.075868349195503, -1.878369140625011 ] } },
{ "type": "Feature", "properties": { "name": "Sumatera Utara", "adm0_a3": "IDN", "iso_3166_2": "ID-SU", "postal": "SU" }, "geometry": { "type": "Point", "coordinates": [ 99.201839095791527, 2.261029208909719 ] } },
{ "type": "Feature", "properties": { "name": "Riau", "adm0_a3": "IDN", "iso_3166_2": "ID-RI", "postal": "RI" }, "geometry": { "type": "Point", "coordinates": [ 101.547225257403568, 0.687457634970812 ] } },
{ "type": "Feature", "properties": { "name": "Sulawesi Utara", "adm0_a3": "IDN", "iso_3166_2": "ID-SA", "postal": "SW" }, "geometry": { "type": "Point", "coordinates": [ 124.573818782179416, 1.008789062499995 ] } },
{ "type": "Feature", "properties": { "name": "Maluku Utara", "adm0_a3": "IDN", "iso_3166_2": "ID-MU", "postal": "LA" }, "geometry": { "type": "Point", "coordinates": [ 124.827476470236931, -1.83447265625 ] } },
{ "type": "Feature", "properties": { "name": "Sumatera Barat", "adm0_a3": "IDN", "iso_3166_2": "ID-SB", "postal": "SB" }, "geometry": { "type": "Point", "coordinates": [ 100.836637416840091, -0.812744140625 ] } },
{ "type": "Feature", "properties": { "name": "Yogyakarta", "adm0_a3": "IDN", "iso_3166_2": "ID-YO", "postal": "YO" }, "geometry": { "type": "Point", "coordinates": [ 110.415399811858151, -7.882077480785163 ] } },
{ "type": "Feature", "properties": { "name": "Maluku", "adm0_a3": "IDN", "iso_3166_2": "ID-MA", "postal": "MA" }, "geometry": { "type": "Point", "coordinates": [ 126.65884236181239, -3.446044921875003 ] } },
{ "type": "Feature", "properties": { "name": "Nusa Tenggara Barat", "adm0_a3": "IDN", "iso_3166_2": "ID-NB", "postal": "NB" }, "geometry": { "type": "Point", "coordinates": [ 117.261967357414505, -8.594921875 ] } },
{ "type": "Feature", "properties": { "name": "Sulawesi Tenggara", "adm0_a3": "IDN", "iso_3166_2": "ID-SG", "postal": "SG" }, "geometry": { "type": "Point", "coordinates": [ 121.904840959821442, -3.867480468750003 ] } },
{ "type": "Feature", "properties": { "name": "Sulawesi Tengah", "adm0_a3": "IDN", "iso_3166_2": "ID-ST", "postal": "ST" }, "geometry": { "type": "Point", "coordinates": [ 122.120600392768822, -0.953320312500011 ] } },
{ "type": "Feature", "properties": { "name": "Papua", "adm0_a3": "IDN", "iso_3166_2": "ID-PA", "postal": "PA" }, "geometry": { "type": "Point", "coordinates": [ 139.375868894445034, -5.284082031250001 ] } },
{ "type": "Feature", "properties": { "name": "Telangana", "adm0_a3": "IND", "iso_3166_2": "IN-TG", "postal": "TG" }, "geometry": { "type": "Point", "coordinates": [ 79.274914595534227, 17.874697373984617 ] } },
{ "type": "Feature", "properties": { "name": "Ladakh", "adm0_a3": "IND", "iso_3166_2": "IN-LA", "postal": "LA" }, "geometry": { "type": "Point", "coordinates": [ 77.424562933942838, 33.925646066781297 ] } },
{ "type": "Feature", "properties": { "name": "Chandigarh", "adm0_a3": "IND", "iso_3166_2": "IN-CH", "postal": "CH" }, "geometry": { "type": "Point", "coordinates": [ 76.779961417555469, 30.731057339424666 ] } },
{ "type": "Feature", "properties": { "name": "Delhi", "adm0_a3": "IND", "iso_3166_2": "IN-DL", "postal": "DL" }, "geometry": { "type": "Point", "coordinates": [ 77.119009905776124, 28.661170762370773 ] } },
{ "type": "Feature", "properties": { "name": "Himachal Pradesh", "adm0_a3": "IND", "iso_3166_2": "IN-HP", "postal": "HP" }, "geometry": { "type": "Point", "coordinates": [ 77.319764783634469, 31.827514960746811 ] } },
{ "type": "Feature", "properties": { "name": "Haryana", "adm0_a3": "IND", "iso_3166_2": "IN-HR", "postal": "HR" }, "geometry": { "type": "Point", "coordinates": [ 76.234602883868462, 29.290279649785987 ] } },
{ "type": "Feature", "properties": { "name": "Jammu and Kashmir", "adm0_a3": "IND", "iso_3166_2": "IN-JK", "postal": "JK" }, "geometry": { "type": "Point", "coordinates": [ 75.274245887270936, 33.526041775032503 ] } },
{ "type": "Feature", "properties": { "name": "Andhra Pradesh", "adm0_a3": "IND", "iso_3166_2": "IN-AP", "postal": "AP" }, "geometry": { "type": "Point", "coordinates": [ 79.61000316104041, 15.897840528382432 ] } },
{ "type": "Feature", "properties": { "name": "Kerala", "adm0_a3": "IND", "iso_3166_2": "IN-KL", "postal": "KL" }, "geometry": { "type": "Point", "coordinates": [ 76.425260068968441, 10.535145372261098 ] } },
{ "type": "Feature", "properties": { "name": "Lakshadweep", "adm0_a3": "IND", "iso_3166_2": "IN-LD", "postal": "LD" }, "geometry": { "type": "Point", "coordinates": [ 73.068449301478324, 8.284179687499993 ] } },
{ "type": "Feature", "properties": { "name": "Odisha", "adm0_a3": "IND", "iso_3166_2": "IN-OR", "postal": "OR" }, "geometry": { "type": "Point", "coordinates": [ 84.527281375734731, 20.242431640625 ] } },
{ "type": "Feature", "properties": { "name": "Dadra and Nagar Haveli and Daman and Diu", "adm0_a3": "IND", "iso_3166_2": "IN-DH", "postal": "DH" }, "geometry": { "type": "Point", "coordinates": [ 72.979073203269223, 20.189530239079261 ] } },
{ "type": "Feature", "properties": { "name": "Karnataka", "adm0_a3": "IND", "iso_3166_2": "IN-KA", "postal": "KA" }, "geometry": { "type": "Point", "coordinates": [ 75.503729018916502, 15.065385647129887 ] } },
{ "type": "Feature", "properties": { "name": "Goa", "adm0_a3": "IND", "iso_3166_2": "IN-GA", "postal": "GA" }, "geometry": { "type": "Point", "coordinates": [ 74.061830972101731, 15.351708984375001 ] } },
{ "type": "Feature", "properties": { "name": "Andaman and Nicobar", "adm0_a3": "IND", "iso_3166_2": "IN-AN", "postal": "AN" }, "geometry": { "type": "Point", "coordinates": [ 92.840847234723412, 12.495800781249997 ] } },
{ "type": "Feature", "properties": { "name": "Assam", "adm0_a3": "IND", "iso_3166_2": "IN-AS", "postal": "AS" }, "geometry": { "type": "Point", "coordinates": [ 90.776557960029393, 26.071897284681938 ] } },
{ "type": "Feature", "properties": { "name": "Manipur", "adm0_a3": "IND", "iso_3166_2": "IN-MN", "postal": "MN" }, "geometry": { "type": "Point", "coordinates": [ 93.855347619061703, 24.788526008003437 ] } },
{ "type": "Feature", "properties": { "name": "Nagaland", "adm0_a3": "IND", "iso_3166_2": "IN-NL", "postal": "NL" }, "geometry": { "type": "Point", "coordinates": [ 94.543344042233187, 26.137913927131144 ] } },
{ "type": "Feature", "properties": { "name": "Meghalaya", "adm0_a3": "IND", "iso_3166_2": "IN-ML", "postal": "ML" }, "geometry": { "type": "Point", "coordinates": [ 91.27081053761458, 25.564008388626235 ] } },
{ "type": "Feature", "properties": { "name": "Punjab", "adm0_a3": "IND", "iso_3166_2": "IN-PB", "postal": "PB" }, "geometry": { "type": "Point", "coordinates": [ 75.629297701400972, 31.051696682249165 ] } },
{ "type": "Feature", "properties": { "name": "Rajasthan", "adm0_a3": "IND", "iso_3166_2": "IN-RJ", "postal": "RJ" }, "geometry": { "type": "Point", "coordinates": [ 73.794491007304515, 26.645531521076698 ] } },
{ "type": "Feature", "properties": { "name": "Uttar Pradesh", "adm0_a3": "IND", "iso_3166_2": "IN-UP", "postal": "UP" }, "geometry": { "type": "Point", "coordinates": [ 80.779382155136886, 27.147568060767384 ] } },
{ "type": "Feature", "properties": { "name": "Uttarakhand", "adm0_a3": "IND", "iso_3166_2": "IN-UT", "postal": "UT" }, "geometry": { "type": "Point", "coordinates": [ 79.272051994074758, 30.056834926874089 ] } },
{ "type": "Feature", "properties": { "name": "Jharkhand", "adm0_a3": "IND", "iso_3166_2": "IN-JH", "postal": "JH" }, "geometry": { "type": "Point", "coordinates": [ 85.126159721246268, 23.657380581398684 ] } },
{ "type": "Feature", "properties": { "name": "West Bengal", "adm0_a3": "IND", "iso_3166_2": "IN-WB", "postal": "WB" }, "geometry": { "type": "Point", "coordinates": [ 88.066560081381709, 24.42155874276952 ] } },
{ "type": "Feature", "properties": { "name": "Bihar", "adm0_a3": "IND", "iso_3166_2": "IN-BR", "postal": "BR" }, "geometry": { "type": "Point", "coordinates": [ 86.106703658153592, 25.910434271674262 ] } },
{ "type": "Feature", "properties": { "name": "Chhattisgarh", "adm0_a3": "IND", "iso_3166_2": "IN-CT", "postal": "CT" }, "geometry": { "type": "Point", "coordinates": [ 81.512286180024034, 20.976846523548204 ] } },
{ "type": "Feature", "properties": { "name": "Madhya Pradesh", "adm0_a3": "IND", "iso_3166_2": "IN-MP", "postal": "MP" }, "geometry": { "type": "Point", "coordinates": [ 79.374218217044771, 23.961935635271345 ] } },
{ "type": "Feature", "properties": { "name": "Puducherry", "adm0_a3": "IND", "iso_3166_2": "IN-PY", "postal": "PY" }, "geometry": { "type": "Point", "coordinates": [ 79.771919584444476, 11.879223537586171 ] } },
{ "type": "Feature", "properties": { "name": "Tamil Nadu", "adm0_a3": "IND", "iso_3166_2": "IN-TN", "postal": "TN" }, "geometry": { "type": "Point", "coordinates": [ 78.36762384604674, 10.774443820753532 ] } },
{ "type": "Feature", "properties": { "name": "Gujarat", "adm0_a3": "IND", "iso_3166_2": "IN-GJ", "postal": null }, "geometry": { "type": "Point", "coordinates": [ 71.870266517210396, 22.394458007812496 ] } },
{ "type": "Feature", "properties": { "name": "Arunachal Pradesh", "adm0_a3": "IND", "iso_3166_2": "IN-AR", "postal": "AR" }, "geometry": { "type": "Point", "coordinates": [ 94.988647331926003, 28.055703843695518 ] } },
{ "type": "Feature", "properties": { "name": "Mizoram", "adm0_a3": "IND", "iso_3166_2": "IN-MZ", "postal": "MZ" }, "geometry": { "type": "Point", "coordinates": [ 92.854463261472176, 23.187460944099222 ] } },
{ "type": "Feature", "properties": { "name": "Tripura", "adm0_a3": "IND", "iso_3166_2": "IN-TR", "postal": "TR" }, "geometry": { "type": "Point", "coordinates": [ 91.721043927737696, 23.742375393157424 ] } },
{ "type": "Feature", "properties": { "name": "Tomsk", "adm0_a3": "RUS", "iso_3166_2": "RU-TOM", "postal": "TO" }, "geometry": { "type": "Point", "coordinates": [ 81.575438526622889, 58.4023011342899 ] } },
{ "type": "Feature", "properties": { "name": "Adygey", "adm0_a3": "RUS", "iso_3166_2": "RU-AD", "postal": "AD" }, "geometry": { "type": "Point", "coordinates": [ 40.120298788908443, 44.414821580901219 ] } },
{ "type": "Feature", "properties": { "name": "Karachay-Cherkess", "adm0_a3": "RUS", "iso_3166_2": "RU-KC", "postal": "KC" }, "geometry": { "type": "Point", "coordinates": [ 41.710779611345956, 43.863589077773696 ] } },
{ "type": "Feature", "properties": { "name": "Ingush", "adm0_a3": "RUS", "iso_3166_2": "RU-IN", "postal": "IN" }, "geometry": { "type": "Point", "coordinates": [ 45.01845194042977, 43.100974127953634 ] } },
{ "type": "Feature", "properties": { "name": "Kabardin-Balkar", "adm0_a3": "RUS", "iso_3166_2": "RU-KB", "postal": "KB" }, "geometry": { "type": "Point", "coordinates": [ 43.393094898937505, 43.460435390880548 ] } },
{ "type": "Feature", "properties": { "name": "North Ossetia", "adm0_a3": "RUS", "iso_3166_2": "RU-SE", "postal": "NO" }, "geometry": { "type": "Point", "coordinates": [ 44.273071997969168, 43.190413113324496 ] } },
{ "type": "Feature", "properties": { "name": "Stavropol'", "adm0_a3": "RUS", "iso_3166_2": "RU-STA", "postal": "ST" }, "geometry": { "type": "Point", "coordinates": [ 43.654992779604498, 44.937373663913434 ] } },
{ "type": "Feature", "properties": { "name": "Chukchi Autonomous Okrug", "adm0_a3": "RUS", "iso_3166_2": "RU-CHU", "postal": "CK" }, "geometry": { "type": "Point", "coordinates": [ 169.496339962797265, 65.975288499814383 ] } },
{ "type": "Feature", "properties": { "name": "Kaliningrad", "adm0_a3": "RUS", "iso_3166_2": "RU-KGD", "postal": "KN" }, "geometry": { "type": "Point", "coordinates": [ 21.375701179884544, 54.790234375 ] } },
{ "type": "Feature", "properties": { "name": "Murmansk", "adm0_a3": "RUS", "iso_3166_2": "RU-MUR", "postal": "MM" }, "geometry": { "type": "Point", "coordinates": [ 32.089032432987509, 65.307436069057758 ] } },
{ "type": "Feature", "properties": { "name": "Novgorod", "adm0_a3": "RUS", "iso_3166_2": "RU-NGR", "postal": "NG" }, "geometry": { "type": "Point", "coordinates": [ 31.839403478421616, 58.177637844960543 ] } },
{ "type": "Feature", "properties": { "name": "Pskov", "adm0_a3": "RUS", "iso_3166_2": "RU-PSK", "postal": "PS" }, "geometry": { "type": "Point", "coordinates": [ 29.191870064528008, 57.305120042542995 ] } },
{ "type": "Feature", "properties": { "name": "Leningrad", "adm0_a3": "RUS", "iso_3166_2": "RU-LEN", "postal": "LN" }, "geometry": { "type": "Point", "coordinates": [ 32.950351537348773, 59.888488925518793 ] } },
{ "type": "Feature", "properties": { "name": "City of St. Petersburg", "adm0_a3": "RUS", "iso_3166_2": "RU-SPE", "postal": "SP" }, "geometry": { "type": "Point", "coordinates": [ 30.342977517137825, 59.929980468750003 ] } },
{ "type": "Feature", "properties": { "name": "Bryansk", "adm0_a3": "RUS", "iso_3166_2": "RU-BRY", "postal": "BR" }, "geometry": { "type": "Point", "coordinates": [ 33.12533778100719, 52.900828152171343 ] } },
{ "type": "Feature", "properties": { "name": "Smolensk", "adm0_a3": "RUS", "iso_3166_2": "RU-SMO", "postal": "SM" }, "geometry": { "type": "Point", "coordinates": [ 32.879391082478342, 54.740483303461673 ] } },
{ "type": "Feature", "properties": { "name": "Karelia", "adm0_a3": "RUS", "iso_3166_2": "RU-KR", "postal": "KI" }, "geometry": { "type": "Point", "coordinates": [ 35.714960765766591, 65.085766601562511 ] } },
{ "type": "Feature", "properties": { "name": "Arkhangel'sk", "adm0_a3": "RUS", "iso_3166_2": "RU-ARK", "postal": "VO" }, "geometry": { "type": "Point", "coordinates": [ 41.452781715145882, 63.596518968775371 ] } },
{ "type": "Feature", "properties": { "name": "Ivanovo", "adm0_a3": "RUS", "iso_3166_2": "RU-IVA", "postal": "IV" }, "geometry": { "type": "Point", "coordinates": [ 41.640589818976764, 57.080146694414395 ] } },
{ "type": "Feature", "properties": { "name": "Vologda", "adm0_a3": "RUS", "iso_3166_2": "RU-VLG", "postal": "VO" }, "geometry": { "type": "Point", "coordinates": [ 41.100644653975124, 60.026258857260416 ] } },
{ "type": "Feature", "properties": { "name": "Kostroma", "adm0_a3": "RUS", "iso_3166_2": "RU-KOS", "postal": "KT" }, "geometry": { "type": "Point", "coordinates": [ 43.801258058995586, 58.449119981651791 ] } },
{ "type": "Feature", "properties": { "name": "Nizhegorod", "adm0_a3": "RUS", "iso_3166_2": "RU-NIZ", "postal": "NZ" }, "geometry": { "type": "Point", "coordinates": [ 44.329385054032187, 56.282456366368194 ] } },
{ "type": "Feature", "properties": { "name": "Tver'", "adm0_a3": "RUS", "iso_3166_2": "RU-TVE", "postal": "TV" }, "geometry": { "type": "Point", "coordinates": [ 35.3027223831713, 57.236661688785887 ] } },
{ "type": "Feature", "properties": { "name": "Yaroslavl'", "adm0_a3": "RUS", "iso_3166_2": "RU-YAR", "postal": "YS" }, "geometry": { "type": "Point", "coordinates": [ 39.089751768401271, 57.74146291817911 ] } },
{ "type": "Feature", "properties": { "name": "Kaluga", "adm0_a3": "RUS", "iso_3166_2": "RU-KLU", "postal": "KG" }, "geometry": { "type": "Point", "coordinates": [ 35.128937663661048, 54.302654731180866 ] } },
{ "type": "Feature", "properties": { "name": "Kursk", "adm0_a3": "RUS", "iso_3166_2": "RU-KRS", "postal": "KS" }, "geometry": { "type": "Point", "coordinates": [ 36.165354953647672, 51.662066555378487 ] } },
{ "type": "Feature", "properties": { "name": "Lipetsk", "adm0_a3": "RUS", "iso_3166_2": "RU-LIP", "postal": "LP" }, "geometry": { "type": "Point", "coordinates": [ 38.897268047739999, 52.743680121690232 ] } },
{ "type": "Feature", "properties": { "name": "Moskovskaya", "adm0_a3": "RUS", "iso_3166_2": "RU-MOW", "postal": "MS" }, "geometry": { "type": "Point", "coordinates": [ 38.879333807753525, 55.586412953095305 ] } },
{ "type": "Feature", "properties": { "name": "Moskva", "adm0_a3": "RUS", "iso_3166_2": "RU-MOS", "postal": "MS" }, "geometry": { "type": "Point", "coordinates": [ 37.322437558605117, 55.436865220203714 ] } },
{ "type": "Feature", "properties": { "name": "Orel", "adm0_a3": "RUS", "iso_3166_2": "RU-ORL", "postal": "OL" }, "geometry": { "type": "Point", "coordinates": [ 36.334964324730926, 52.814425157345113 ] } },
{ "type": "Feature", "properties": { "name": "Rostov", "adm0_a3": "RUS", "iso_3166_2": "RU-ROS", "postal": "RO" }, "geometry": { "type": "Point", "coordinates": [ 40.957796823103976, 48.099415798800038 ] } },
{ "type": "Feature", "properties": { "name": "Tula", "adm0_a3": "RUS", "iso_3166_2": "RU-TUL", "postal": "TL" }, "geometry": { "type": "Point", "coordinates": [ 37.397685330531885, 53.894204210106182 ] } },
{ "type": "Feature", "properties": { "name": "Volgograd", "adm0_a3": "RUS", "iso_3166_2": "RU-VGG", "postal": "VG" }, "geometry": { "type": "Point", "coordinates": [ 44.451935694218164, 49.335464382517621 ] } },
{ "type": "Feature", "properties": { "name": "Belgorod", "adm0_a3": "RUS", "iso_3166_2": "RU-BEL", "postal": "BL" }, "geometry": { "type": "Point", "coordinates": [ 37.237260298560855, 50.623512376765582 ] } },
{ "type": "Feature", "properties": { "name": "Krasnodar", "adm0_a3": "RUS", "iso_3166_2": "RU-KDA", "postal": "KD" }, "geometry": { "type": "Point", "coordinates": [ 38.077964740933325, 45.138933261171154 ] } },
{ "type": "Feature", "properties": { "name": "Mordovia", "adm0_a3": "RUS", "iso_3166_2": "RU-MO", "postal": "MR" }, "geometry": { "type": "Point", "coordinates": [ 44.553063571986982, 54.44128967982482 ] } },
{ "type": "Feature", "properties": { "name": "Penza", "adm0_a3": "RUS", "iso_3166_2": "RU-PNZ", "postal": "PZ" }, "geometry": { "type": "Point", "coordinates": [ 44.776369197338575, 53.135142014942005 ] } },
{ "type": "Feature", "properties": { "name": "Ryazan'", "adm0_a3": "RUS", "iso_3166_2": "RU-RYA", "postal": "RZ" }, "geometry": { "type": "Point", "coordinates": [ 40.575263960516793, 54.304463406311129 ] } },
{ "type": "Feature", "properties": { "name": "Tambov", "adm0_a3": "RUS", "iso_3166_2": "RU-TAM", "postal": "TB" }, "geometry": { "type": "Point", "coordinates": [ 41.578061761307218, 52.715025539996645 ] } },
{ "type": "Feature", "properties": { "name": "Vladimir", "adm0_a3": "RUS", "iso_3166_2": "RU-VLA", "postal": "VL" }, "geometry": { "type": "Point", "coordinates": [ 40.582700736319765, 55.963974514712049 ] } },
{ "type": "Feature", "properties": { "name": "Voronezh", "adm0_a3": "RUS", "iso_3166_2": "RU-VOR", "postal": "VR" }, "geometry": { "type": "Point", "coordinates": [ 40.066504926498155, 50.866081549673737 ] } },
{ "type": "Feature", "properties": { "name": "Bashkortostan", "adm0_a3": "RUS", "iso_3166_2": "RU-BA", "postal": "BK" }, "geometry": { "type": "Point", "coordinates": [ 56.335683134795026, 54.019325772116645 ] } },
{ "type": "Feature", "properties": { "name": "Chelyabinsk", "adm0_a3": "RUS", "iso_3166_2": "RU-CHE", "postal": "CL" }, "geometry": { "type": "Point", "coordinates": [ 61.527363116138474, 54.179147337351154 ] } },
{ "type": "Feature", "properties": { "name": "Kurgan", "adm0_a3": "RUS", "iso_3166_2": "RU-KGN", "postal": "KU" }, "geometry": { "type": "Point", "coordinates": [ 65.438490511861659, 55.470955512087187 ] } },
{ "type": "Feature", "properties": { "name": "Nenets", "adm0_a3": "RUS", "iso_3166_2": "RU-NEN", "postal": "NN" }, "geometry": { "type": "Point", "coordinates": [ 56.297842897286792, 67.837915039062494 ] } },
{ "type": "Feature", "properties": { "name": "Yamal-Nenets", "adm0_a3": "RUS", "iso_3166_2": "RU-YAN", "postal": "YN" }, "geometry": { "type": "Point", "coordinates": [ 69.211671227214651, 67.582714843750011 ] } },
{ "type": "Feature", "properties": { "name": "Komi", "adm0_a3": "RUS", "iso_3166_2": "RU-KO", "postal": "KO" }, "geometry": { "type": "Point", "coordinates": [ 53.054979657900873, 63.839126898987161 ] } },
{ "type": "Feature", "properties": { "name": "Kirov", "adm0_a3": "RUS", "iso_3166_2": "RU-KIR", "postal": "KV" }, "geometry": { "type": "Point", "coordinates": [ 50.245604442661232, 58.580946561034921 ] } },
{ "type": "Feature", "properties": { "name": "Mariy-El", "adm0_a3": "RUS", "iso_3166_2": "RU-ME", "postal": "ME" }, "geometry": { "type": "Point", "coordinates": [ 47.901163533954843, 56.570139065315573 ] } },
{ "type": "Feature", "properties": { "name": "Sverdlovsk", "adm0_a3": "RUS", "iso_3166_2": "RU-SVE", "postal": "SV" }, "geometry": { "type": "Point", "coordinates": [ 62.204115231349903, 59.084249173210736 ] } },
{ "type": "Feature", "properties": { "name": "Udmurt", "adm0_a3": "RUS", "iso_3166_2": "RU-UD", "postal": "UD" }, "geometry": { "type": "Point", "coordinates": [ 52.754357584805106, 57.143204861215338 ] } },
{ "type": "Feature", "properties": { "name": "Astrakhan'", "adm0_a3": "RUS", "iso_3166_2": "RU-AST", "postal": "AS" }, "geometry": { "type": "Point", "coordinates": [ 47.660526257073158, 47.181396897971247 ] } },
{ "type": "Feature", "properties": { "name": "Chuvash", "adm0_a3": "RUS", "iso_3166_2": "RU-CU", "postal": "CV" }, "geometry": { "type": "Point", "coordinates": [ 47.149801713888181, 55.481290798931184 ] } },
{ "type": "Feature", "properties": { "name": "Kalmyk", "adm0_a3": "RUS", "iso_3166_2": "RU-KL", "postal": "KL" }, "geometry": { "type": "Point", "coordinates": [ 45.429987930656509, 46.478041897315677 ] } },
{ "type": "Feature", "properties": { "name": "Samara", "adm0_a3": "RUS", "iso_3166_2": "RU-SAM", "postal": "SA" }, "geometry": { "type": "Point", "coordinates": [ 50.113422526918413, 53.235381374700637 ] } },
{ "type": "Feature", "properties": { "name": "Orenburg", "adm0_a3": "RUS", "iso_3166_2": "RU-ORE", "postal": "OB" }, "geometry": { "type": "Point", "coordinates": [ 53.543827969590296, 52.434060777632766 ] } },
{ "type": "Feature", "properties": { "name": "Saratov", "adm0_a3": "RUS", "iso_3166_2": "RU-SAR", "postal": "SR" }, "geometry": { "type": "Point", "coordinates": [ 46.572519336344911, 51.305537929888786 ] } },
{ "type": "Feature", "properties": { "name": "Tatarstan", "adm0_a3": "RUS", "iso_3166_2": "RU-TA", "postal": "TT" }, "geometry": { "type": "Point", "coordinates": [ 50.706048167988641, 55.32204987265348 ] } },
{ "type": "Feature", "properties": { "name": "Ul'yanovsk", "adm0_a3": "RUS", "iso_3166_2": "RU-ULY", "postal": "UL" }, "geometry": { "type": "Point", "coordinates": [ 47.412486598459836, 53.74347697588172 ] } },
{ "type": "Feature", "properties": { "name": "Khanty-Mansiy", "adm0_a3": "RUS", "iso_3166_2": "RU-KHM", "postal": "KM" }, "geometry": { "type": "Point", "coordinates": [ 71.940413800932333, 62.143003038859149 ] } },
{ "type": "Feature", "properties": { "name": "Omsk", "adm0_a3": "RUS", "iso_3166_2": "RU-OMS", "postal": "OM" }, "geometry": { "type": "Point", "coordinates": [ 73.180319412094704, 56.008752142947031 ] } },
{ "type": "Feature", "properties": { "name": "Tyumen'", "adm0_a3": "RUS", "iso_3166_2": "RU-TYU", "postal": "TY" }, "geometry": { "type": "Point", "coordinates": [ 67.760609451977956, 57.56607310693829 ] } },
{ "type": "Feature", "properties": { "name": "Altay", "adm0_a3": "RUS", "iso_3166_2": "RU-ALT", "postal": "AL" }, "geometry": { "type": "Point", "coordinates": [ 82.659080496725977, 52.491679999832087 ] } },
{ "type": "Feature", "properties": { "name": "Gorno-Altay", "adm0_a3": "RUS", "iso_3166_2": "RU-AL", "postal": "GA" }, "geometry": { "type": "Point", "coordinates": [ 86.963906034616031, 50.869892686748074 ] } },
{ "type": "Feature", "properties": { "name": "Kemerovo", "adm0_a3": "RUS", "iso_3166_2": "RU-KEM", "postal": "KE" }, "geometry": { "type": "Point", "coordinates": [ 86.817250511714846, 54.504425360991576 ] } },
{ "type": "Feature", "properties": { "name": "Khakass", "adm0_a3": "RUS", "iso_3166_2": "RU-KK", "postal": "KK" }, "geometry": { "type": "Point", "coordinates": [ 90.371249171650476, 53.369275011182793 ] } },
{ "type": "Feature", "properties": { "name": "Novosibirsk", "adm0_a3": "RUS", "iso_3166_2": "RU-NVS", "postal": "NS" }, "geometry": { "type": "Point", "coordinates": [ 80.01548820265009, 55.315745347669633 ] } },
{ "type": "Feature", "properties": { "name": "Chechnya", "adm0_a3": "RUS", "iso_3166_2": "RU-CE", "postal": "CN" }, "geometry": { "type": "Point", "coordinates": [ 45.762218145291186, 43.259388231032034 ] } },
{ "type": "Feature", "properties": { "name": "Dagestan", "adm0_a3": "RUS", "iso_3166_2": "RU-DA", "postal": "DA" }, "geometry": { "type": "Point", "coordinates": [ 46.955355232188126, 43.074404860031692 ] } },
{ "type": "Feature", "properties": { "name": "Irkutsk", "adm0_a3": "RUS", "iso_3166_2": "RU-IRK", "postal": "IR" }, "geometry": { "type": "Point", "coordinates": [ 108.988786941831847, 57.698158067840524 ] } },
{ "type": "Feature", "properties": { "name": "Krasnoyarsk", "adm0_a3": "RUS", "iso_3166_2": "RU-KYA", "postal": "KY" }, "geometry": { "type": "Point", "coordinates": [ 95.846332177822745, 64.753567206511349 ] } },
{ "type": "Feature", "properties": { "name": "Tuva", "adm0_a3": "RUS", "iso_3166_2": "RU-TY", "postal": "TU" }, "geometry": { "type": "Point", "coordinates": [ 94.165553055826791, 51.733896796232351 ] } },
{ "type": "Feature", "properties": { "name": "Buryat", "adm0_a3": "RUS", "iso_3166_2": "RU-BU", "postal": "BU" }, "geometry": { "type": "Point", "coordinates": [ 111.070556816045126, 53.595850327980202 ] } },
{ "type": "Feature", "properties": { "name": "Amur", "adm0_a3": "RUS", "iso_3166_2": "RU-AMU", "postal": "AM" }, "geometry": { "type": "Point", "coordinates": [ 130.1798661867833, 52.947724514772439 ] } },
{ "type": "Feature", "properties": { "name": "Chita", "adm0_a3": "RUS", "iso_3166_2": "RU-ZAB", "postal": "CT" }, "geometry": { "type": "Point", "coordinates": [ 118.041018665595089, 53.766886400237155 ] } },
{ "type": "Feature", "properties": { "name": "Primor'ye", "adm0_a3": "RUS", "iso_3166_2": "RU-PRI", "postal": "PR" }, "geometry": { "type": "Point", "coordinates": [ 135.112541103060266, 45.360175937181779 ] } },
{ "type": "Feature", "properties": { "name": "Sakha (Yakutia)", "adm0_a3": "RUS", "iso_3166_2": "RU-SA", "postal": "CK" }, "geometry": { "type": "Point", "coordinates": [ 129.281997062963796, 64.722768052903263 ] } },
{ "type": "Feature", "properties": { "name": "Yevrey", "adm0_a3": "RUS", "iso_3166_2": "RU-YEV", "postal": "YV" }, "geometry": { "type": "Point", "coordinates": [ 132.640528436747445, 48.584735012718298 ] } },
{ "type": "Feature", "properties": { "name": "Khabarovsk", "adm0_a3": "RUS", "iso_3166_2": "RU-KHA", "postal": "KH" }, "geometry": { "type": "Point", "coordinates": [ 133.49975555374445, 54.598363192800598 ] } },
{ "type": "Feature", "properties": { "name": "Maga Buryatdan", "adm0_a3": "RUS", "iso_3166_2": "RU-MAG", "postal": "MG" }, "geometry": { "type": "Point", "coordinates": [ 154.084081984005309, 62.649289964010592 ] } },
{ "type": "Feature", "properties": { "name": "Sakhalin", "adm0_a3": "RUS", "iso_3166_2": "RU-SAK", "postal": "SL" }, "geometry": { "type": "Point", "coordinates": [ 143.051082952264835, 50.05625 ] } },
{ "type": "Feature", "properties": { "name": "Crimea", "adm0_a3": "RUS", "iso_3166_2": "UA-43", "postal": "KR" }, "geometry": { "type": "Point", "coordinates": [ 34.770640593598287, 45.268041992187491 ] } },
{ "type": "Feature", "properties": { "name": "Perm'", "adm0_a3": "RUS", "iso_3166_2": "RU-PER", "postal": "PE" }, "geometry": { "type": "Point", "coordinates": [ 56.417922084444612, 58.90047486067624 ] } },
{ "type": "Feature", "properties": { "name": "Kamchatka", "adm0_a3": "RUS", "iso_3166_2": "RU-KAM", "postal": "KA" }, "geometry": { "type": "Point", "coordinates": [ 159.81207123577866, 57.964599609375 ] } },
{ "type": "Feature", "properties": { "name": "Sevastopol", "adm0_a3": "RUS", "iso_3166_2": "UA-40", "postal": "SC" }, "geometry": { "type": "Point", "coordinates": [ 33.608213970511322, 44.642492108916308 ] } },
{ "type": "Feature", "properties": { "name": "Northern Cape", "adm0_a3": "ZAF", "iso_3166_2": "ZA-NC", "postal": "NC" }, "geometry": { "type": "Point", "coordinates": [ 22.017968071353735, -28.862191460894156 ] } },
{ "type": "Feature", "properties": { "name": "Western Cape", "adm0_a3": "ZAF", "iso_3166_2": "ZA-WC", "postal": "WC" }, "geometry": { "type": "Point", "coordinates": [ 22.164677880371681, -32.622375380219637 ] } },
{ "type": "Feature", "properties": { "name": "North West", "adm0_a3": "ZAF", "iso_3166_2": "ZA-NW", "postal": "NW" }, "geometry": { "type": "Point", "coordinates": [ 25.249960277606899, -26.362692513871927 ] } },
{ "type": "Feature", "properties": { "name": "Free State", "adm0_a3": "ZAF", "iso_3166_2": "ZA-FS", "postal": "FS" }, "geometry": { "type": "Point", "coordinates": [ 26.593981450969856, -28.668792413148907 ] } },
{ "type": "Feature", "properties": { "name": "Gauteng", "adm0_a3": "ZAF", "iso_3166_2": "ZA-GT", "postal": "GT" }, "geometry": { "type": "Point", "coordinates": [ 28.035830517111606, -25.988948838179272 ] } },
{ "type": "Feature", "properties": { "name": "Mpumalanga", "adm0_a3": "ZAF", "iso_3166_2": "ZA-MP", "postal": "MP" }, "geometry": { "type": "Point", "coordinates": [ 30.45478615799404, -25.724570825249284 ] } },
{ "type": "Feature", "properties": { "name": "Limpopo", "adm0_a3": "ZAF", "iso_3166_2": "ZA-LP", "postal": "NP" }, "geometry": { "type": "Point", "coordinates": [ 29.341454807361572, -23.77903919850403 ] } },
{ "type": "Feature", "properties": { "name": "KwaZulu-Natal", "adm0_a3": "ZAF", "iso_3166_2": "ZA-NL", "postal": "NL" }, "geometry": { "type": "Point", "coordinates": [ 30.407939028524357, -28.945422817849604 ] } },
{ "type": "Feature", "properties": { "name": "Eastern Cape", "adm0_a3": "ZAF", "iso_3166_2": "ZA-EC", "postal": "EC" }, "geometry": { "type": "Point", "coordinates": [ 26.588608756352087, -32.063966926123378 ] } },
{ "type": "Feature", "properties": { "name": "Maharashtra", "adm0_a3": "IND", "iso_3166_2": "IN-MH", "postal": "MH" }, "geometry": { "type": "Point", "coordinates": [ 75.39867362393727, 18.822456061448065 ] } }
]
}
